name,category,address,city,state,lat,lng
Olive Rectal Formula,object-oriented,1590 Kenwood Drive,Pittsburgh,PA,40.4344,30.2023
Hibiclens,bifurcated,9876 Mccormick Plaza,Atlanta,GA,33.8444,34.1073
Day Time,grid-enabled,44 Esker Hill,Los Angeles,CA,33.7866,33.9754
Ramipril,Mandatory,33833 Gina Court,Honolulu,HI,21.2987,30.4158
ZENPEP,Visionary,4063 Maryland Center,Honolulu,HI,21.3278,27.872
Dr Teals,Multi-channelled,73 Rowland Street,Stamford,CT,41.0516,28.072
Fluocinonide,challenge,58711 Eliot Lane,Anchorage,AK,61.1089,33.2765
Didanosine,Cross-platform,2524 Victoria Terrace,Olympia,WA,47.1042,38.6531
Atenolol,system-worthy,0 Judy Center,Austin,TX,30.43,35.0443
Four Season,mission-critical,3839 Aberg Terrace,Garden Grove,CA,33.7661,35.0443
Minocycline Hydrochloride,User-centric,7 Heffernan Street,Honolulu,HI,21.2987,36.3551
Vimpat,approach,653 Sommers Center,Sparks,NV,39.6269,34.84
Lorazepam,service-desk,3799 Brentwood Place,Cleveland,OH,41.3826,41.8119
No7 Lift and Luminate Foundation Sunscreen Broad Spectrum SPF 15 Chestnut,local,2137 Manley Terrace,Richmond,VA,37.5593,33.8444
Paris Hand Sanitizer Vanilla Scent,User-friendly,60182 Northfield Terrace,Sacramento,CA,38.3774,40.251
Diethylpropion Hydrochloride,approach,4 Kipling Terrace,Memphis,TN,35.2017,35.26
Preferred Plus Extra Strength Pain Relief,core,5 Mcbride Court,Houston,TX,29.8159,42.5991
aspirin,Reactive,6 Iowa Point,Toledo,OH,41.6782,41.0247
Motion-Time,Focused,5547 Karstens Place,San Diego,CA,33.0169,36.0275
Potassium Chloride,non-volatile,2862 Birchwood Place,Cincinnati,OH,39.2663,32.2691
Gabapentin,interface,7 Delladonna Plaza,Charlotte,NC,35.26,41.6857
"Piperacillin, Tazobactam",Intuitive,94 Arapahoe Parkway,Anniston,AL,33.7358,37.5242
Nifedipine,non-volatile,11 Rusk Crossing,Peoria,IL,40.7442,38.8318
Chloraseptic Sore Throat Liquid Center,foreground,0654 Stone Corner Crossing,San Bernardino,CA,34.1069,42.6149
Phenylephrine Hydrochloride,Function-based,26337 Holy Cross Road,Bakersfield,CA,35.2944,32.491
Little Noses Decongestant Nose Drops,intangible,9 Haas Street,Kansas City,MO,38.8606,27.4841
Denti-Care Denti-Foam,Automated,82 Helena Park,Lawrenceville,GA,33.9367,33.5225
Oral Pain Reliever,Secured,47 Dixon Park,Des Moines,IA,41.6255,25.7559
Ganciclovir,paradigm,33798 Montana Street,Alexandria,VA,38.8158,30.4478
Exuviance CoverBlend Skin Caring Foundation,Exclusive,915 Haas Circle,Indianapolis,IN,39.7795,37.2742
ibuprofen,Multi-lateral,9355 Veith Place,Hampton,VA,37.0318,41.2044
Severe Cold and Flu,instruction set,42 Summerview Center,Anchorage,AK,61.1901,27.1675
Coumarin,composite,68 Nova Terrace,Shawnee Mission,KS,38.9273,35.2017
Care One,capacity,4146 Union Plaza,Monticello,MN,45.2009,38.8933
Cashew,initiative,8990 Schiller Court,San Francisco,CA,37.7848,27.4272
Narasoo Healing,attitude,94 Arizona Park,Houston,TX,29.8744,28.3822
Prednisone,access,8 Mitchell Plaza,Charlotte,NC,35.2268,45.5483
Oxygen,Triple-buffered,4 Mifflin Park,Tampa,FL,28.0081,40.7918
citalopram hydrobromide,Stand-alone,4733 Pawling Street,Seattle,WA,47.6564,29.834
SUN Solar Defense Hydrating,model,798 Independence Court,Los Angeles,CA,33.7866,28.5469
Prenate Essential,Down-sized,876 Buell Circle,Hamilton,OH,39.441,38.8933
Depo-Testosterone,hierarchy,71 3rd Lane,Dayton,OH,39.7395,41.2722
Cephalexin,Digitized,79513 Monica Way,Fort Collins,CO,40.5384,35.421
Clonidine Hydrochloride,time-frame,4 Manley Alley,Tucson,AZ,31.9701,32.2691
Doxepin Hydrochloride,adapter,6 Nevada Avenue,Montgomery,AL,32.404,37.1136
Fentanyl Citrate,conglomeration,230 Judy Park,Winston Salem,NC,36.0275,39.144
Mystic,static,0610 Chive Plaza,San Angelo,TX,31.4647,39.2847
SOMA Pet-circle,matrix,984 North Pass,Washington,DC,38.9327,29.834
Grass Smut Mixture,disintermediate,8 Main Lane,Hartford,CT,41.7918,38.0283
The Medicine Shoppe Gentle Laxative,Distributed,12290 Oak Alley,Davenport,IA,41.613,29.4375
Losartan Potassium,impactful,49 Carey Park,Scranton,PA,41.3914,37.7509
SEROQUEL,solution-oriented,38624 Lighthouse Bay Court,Van Nuys,CA,33.7866,40.7808
Naproxen,application,5259 Dapin Circle,Fort Worth,TX,32.6796,35.2944
Nighttime Cold and Flu,Re-engineered,03015 Porter Plaza,Portland,ME,43.6783,33.5225
Stivarga,hybrid,8367 Dahle Circle,Baton Rouge,LA,30.3633,27.881
DIOVAN HCT,groupware,28 Spenser Crossing,Arlington,VA,38.8545,36.0807
Chlordiazepoxide Hydrochloride,Distributed,8 Debra Road,Manassas,VA,38.7202,42.7684
Oculoheel,optimal,53879 Gale Circle,Edmond,OK,35.6665,26.4116
Coast Maple,time-frame,13063 Lotheville Pass,Eugene,OR,44.0185,33.7465
Cilostazol,matrices,45 Division Pass,Dallas,TX,32.7673,29.9335
Homeopathic Wart,extranet,12 Dwight Crossing,Irvine,CA,33.6706,39.1361
Oxycodone hydrochloride,national,595 Forest Pass,East Saint Louis,IL,38.6149,33.7866
Vida Mia Hand Sanitizer,knowledge user,648 Debra Park,El Paso,TX,31.6948,40.0086
Equaline Dandruff,Exclusive,8960 Crest Line Way,Albuquerque,NM,35.0549,38.4134
Daytime cold and flu,website,7 Farmco Point,Worcester,MA,42.2492,45.5486
Prednicarbate,asynchronous,9949 Victoria Street,Seattle,WA,47.7377,35.5514
Lorazepam,application,7126 Delladonna Park,San Bernardino,CA,34.1446,29.6779
Fycompa,Distributed,08832 Manitowish Point,Loretto,MN,45.0159,42.1109
Bryophyllum Conchae Special Order,benchmark,34487 Waywood Pass,El Paso,TX,31.7705,32.7673
Extra Strength Pain Relief,Synergized,518 Amoth Street,Fort Lauderdale,FL,26.1625,33.786
Arnica Plus,Networked,7686 Bellgrove Crossing,London,KY,37.1376,33.7352
Personal Care Petroleum Jelly Skin Protectant,portal,2 Park Meadow Crossing,Staten Island,NY,40.5973,41.9399
Aspirin,matrix,7554 Hermina Terrace,Las Vegas,NV,36.086,34.0447
Rugby Heartburn Treatment,reciprocal,7351 7th Terrace,Fullerton,CA,33.7862,35.7977
Prochlorperazine Maleate,local,02479 Graedel Terrace,Carson City,NV,39.1678,33.817
RED ORANGE JELLY BB,capacity,7848 Hollow Ridge Point,Savannah,GA,31.9714,38.8933
Scilla Crataegus,open system,0347 Crest Line Way,Virginia Beach,VA,36.7978,38.9067
Fairly Light Foundation SPF 15,homogeneous,29 Warbler Trail,Salt Lake City,UT,40.6681,26.0663
Optiray,modular,588 Crownhardt Parkway,Reno,NV,40.5412,40.8111
Escitalopram,budgetary management,3997 Welch Street,New York City,NY,40.7526,38.9497
CLARINS Skin Illusion SPF 10 Natural Radiance Foundation Tint 108,capability,5259 Mandrake Street,Aurora,IL,41.7582,43.0073
Diazepam,Seamless,31439 Ramsey Crossing,Richmond,VA,37.5535,41.6492
Snore Soothe,Optional,64 Lakeland Plaza,Stockton,CA,37.9625,40.7808
Nisoldipine,discrete,58738 Tomscot Trail,Scottsdale,AZ,33.6968,41.0938
Hydrochlorothiazide,Multi-channelled,73331 Havey Drive,Sacramento,CA,38.3774,32.7714
Cough plus Bronchial,encoding,8 Dixon Center,San Diego,CA,33.0169,40.081
safeHands,Vision-oriented,2004 Delaware Drive,Houston,TX,29.7853,33.7529
Bain de Soleil,Vision-oriented,51 Reindahl Street,Brockton,MA,41.9705,30.1288
Isordil,paradigm,8398 Loeprich Center,San Francisco,CA,37.7848,31.1282
VENLAFAXINE,user-facing,573 Fairview Hill,Athens,GA,33.9443,27.881
Doxycycline,success,745 Johnson Lane,Atlanta,GA,33.7406,38.8992
Natures Gate,project,2 Melvin Trail,Scottsdale,AZ,33.6968,37.3329
Miconazole 7,matrices,63727 Ramsey Terrace,Knoxville,TN,35.9244,39.8285
PredniSONE,hub,45 Susan Place,Greenville,SC,34.8661,41.5503
NAVI MAXON Sirin Doctor,firmware,490 New Castle Lane,Wilkes Barre,PA,41.2044,33.9754
Naturasil,groupware,10 Basil Junction,Lake Charles,LA,30.2642,39.1668
Premier Value,moratorium,4187 Burrows Junction,Lexington,KY,38.0283,40.4344
Rifampin,Robust,3 Fisk Crossing,Battle Creek,MI,42.2464,30.0005
DiorSkin Nude 012 Porcelain,interface,80861 Rusk Street,Des Moines,IA,41.6727,41.2064
Vancomycin Hydrochloride,Intuitive,5 Memorial Circle,Washington,DC,38.8933,28.5059
Heartburn Relief,static,2 Merrick Avenue,Des Moines,IA,41.6727,32.215
Glyburide,Automated,004 Harbort Avenue,Raleigh,NC,35.7977,31.7466
CareOne Cough DM,product,30 American Crossing,Fort Worth,TX,32.7714,38.8808
Allergy Eye Drops,moderator,10667 Amoth Way,Columbia,SC,34.006,29.834
up and up acid controller complete,function,4299 Ohio Alley,Springfield,IL,39.7495,40.692
Erythromycin,Optional,8730 Corscot Junction,Cleveland,OH,41.6857,38.8318
PNV-OB-DHA,task-force,2 8th Avenue,Cleveland,OH,41.5008,36.7563
Attention and Learning Enhancement,implementation,645 Granby Place,Flint,MI,43.0634,37.7194
Desonide,hardware,1 Nelson Terrace,Kansas City,MO,39.035,38.7202
Womens Laxative,bandwidth-monitored,7 Ridge Oak Place,Greensboro,NC,36.0807,40.4598
Clonazepam,Multi-lateral,1270 Walton Trail,Boston,MA,42.36,40.9177
Cefazolin,stable,95 Red Cloud Center,Roanoke,VA,37.2742,34.2006
Sprayology Hair and Nail Tonic,Balanced,314 International Junction,Tallahassee,FL,30.4494,37.2327
Imipramine Hydrochloride,analyzer,8574 Hooker Terrace,Anchorage,AK,61.1535,33.3538
Nasohist,structure,055 Sheridan Park,Houston,TX,30.0167,37.2742
Mane n Tail Daily Control Anti-Dandruff,software,487 Morning Drive,Dayton,OH,39.739,41.6255
Gillette Clinical Endurance,installation,13500 Rusk Street,Springfield,MA,42.1223,32.7403
Allergy Relief,dynamic,2 Victoria Parkway,San Diego,CA,32.7635,29.6223
Spironolactone,Enterprise-wide,4 American Ash Way,Oakland,CA,37.8044,36.7991
Ampicillin and Sulbactam,homogeneous,574 Forest Road,Sarasota,FL,27.2866,36.086
Diclofenac Sodium and Misoprostol,capability,31878 Artisan Point,Wichita,KS,37.7639,38.8808
Prochlorperazine Maleate,project,7406 North Alley,Los Angeles,CA,33.7866,41.2091
Lipitor,Reduced,3 Garrison Alley,Arlington,TX,32.7714,35.2211
Degree,grid-enabled,90848 Buell Pass,Huntsville,AL,34.734,35.2944
Neutrogena Men Age Fighter Face,value-added,69 Vahlen Circle,Richmond,VA,37.5593,36.086
Silky Finish,Grass-roots,033 Coleman Park,Montgomery,AL,32.2334,39.47
ENALAPRIL MALEATE,methodical,92 Brickson Park Plaza,Naples,FL,26.045,30.671
DEMEROL,solution-oriented,3535 6th Circle,Saint Louis,MO,38.7196,37.7194
Gillette Sport Clear,solution-oriented,8844 Marcy Street,Fargo,ND,46.9346,39.7673
Sudafed PE Pressure Plus Pain Plus Cold,policy,5320 Anzinger Crossing,South Lake Tahoe,CA,38.8753,33.4707
Belucie Luxury Timeless Golden Age Day,grid-enabled,10 Center Hill,Orlando,FL,28.3822,35.6203
Pro-Den Rx,real-time,54 Hayes Crossing,Longview,TX,32.5547,40.8702
hydrochlorothiazide,Reactive,78415 Northwestern Circle,Washington,DC,38.8976,38.8808
MANGO BUTTER LIPSTICK,bifurcated,06670 International Avenue,Philadelphia,PA,40.0422,36.173
MDSolarSciences,Proactive,76852 Esch Plaza,Longview,TX,32.5547,38.0638
buspirone hydrochloride,support,08245 Maple Circle,Anaheim,CA,33.817,37.2602
Propranolol Hydrochloride,Mandatory,645 North Lane,West Hartford,CT,41.7918,47.2325
Benzphetamine Hydrochloride,web-enabled,97486 Stephen Drive,Albuquerque,NM,35.0443,32.7673
ENALAPRIL MALEATE,Networked,985 Thackeray Street,Atlanta,GA,33.9335,36.144
Advanced Eye Relief/ Redness Maximum Relief,Grass-roots,96 Vera Crossing,Lubbock,TX,33.6021,45.5483
Diphenoxylate Hydrochloride and Atropine Sulfate,toolset,18 Ohio Drive,Nashville,TN,36.1866,40.2023
GILTUSS PEDIATRIC,functionalities,26397 Eagle Crest Hill,Tulsa,OK,36.1499,27.7898
Hydromorphone HCl,function,76761 Nelson Terrace,Houston,TX,29.834,39.969
Tobramycin,circuit,75327 Daystar Alley,Omaha,NE,41.2949,35.191
Sage,alliance,3 Granby Center,New Orleans,LA,30.033,31.6948
Acetylcholine Chloride Phenolic,uniform,1745 Declaration Trail,Minneapolis,MN,45.1907,37.3894
Zosyn,eco-centric,37 Waywood Plaza,Modesto,CA,37.6409,38.9776
Oxygen-Helium Mixture,system-worthy,86696 Victoria Court,El Paso,TX,31.7705,43.5851
BENGAY Pain Relief and Massage,Function-based,72271 Farragut Court,Lexington,KY,38.0283,39.0966
Neutrogena,foreground,6449 Surrey Hill,Honolulu,HI,21.3062,40.7808
PREPARATION H,dedicated,60 Debs Avenue,Denver,CO,39.731,40.7548
RISPERIDONE,Function-based,9 Summit Street,Lexington,KY,38.0283,43.0314
Midazolam,interface,728 Summerview Center,Bismarck,ND,46.8165,43.0314
Jason Facial Natural Sunscreen Broad Spectrum SPF20,Re-engineered,1 Garrison Way,Jackson,MS,32.2832,39.7783
Betamethasone Dipropionate,reciprocal,5 Delladonna Park,Daytona Beach,FL,29.0227,39.0429
Badger Unscented Broad Spectrum SPF 30 Sunscreen Cream,migration,054 Little Fleur Hill,Houston,TX,29.6218,38.2467
VALSARTAN,flexibility,00301 Clarendon Road,Scottsdale,AZ,33.6968,41.2044
Swimmers Support,throughput,273 Schurz Trail,Champaign,IL,40.1399,42.3389
Quillivant,encompassing,32 Roth Alley,Irvine,CA,33.6462,44.8055
perfect truth cc eye broad spectrum SPF 15,Fully-configurable,8404 Southridge Street,Lincoln,NE,40.8063,44.968
Corn Smut,encryption,912 Clarendon Plaza,Washington,DC,38.8667,41.3657
Chinese Elm,exuding,5 Montana Circle,Saint Cloud,MN,45.5289,41.2722
ACID REDUCER,moratorium,19132 Darwin Street,Phoenix,AZ,33.4724,37.0206
Defend Severe Cold and Flu,fault-tolerant,1348 Dennis Center,Saint Louis,MO,38.5814,39.11
Gabapentin,Configurable,4079 Utah Alley,Paterson,NJ,40.9252,41.6727
FIRMAGON,Secured,0560 Anzinger Point,Birmingham,AL,33.5225,38.6149
Marlido 25 Kit,system-worthy,12537 Doe Crossing Junction,Independence,MO,39.11,42.9335
Cell to Cell Essence 70mL,Secured,21 Shasta Park,Cincinnati,OH,39.1075,26.0663
Halls,Mandatory,2 Menomonie Plaza,Fort Lauderdale,FL,26.1654,32.7673
Antacid Antigas,Secured,546 Eagle Crest Plaza,Saint Louis,MO,38.6531,30.4124
Standardized Meadow Fescue Grass Pollen,Fundamental,94697 Aberg Place,Las Vegas,NV,36.2158,43.006
Mineral Oil,intermediate,8388 Pond Drive,Evansville,IN,37.9971,41.6868
Betaxolol,Upgradable,6271 Waubesa Terrace,Houston,TX,29.6518,33.1903
HyVee,knowledge base,5091 Westend Alley,Orlando,FL,28.5663,40.7543
RELENZA,composite,3 Shasta Junction,Houston,TX,29.7971,35.9977
Tolterodine Tartrate,contingency,64296 Annamark Drive,San Antonio,TX,29.4375,33.3813
LBEL COULEUR LUXE AMPLIFIER XP,fault-tolerant,7 Mesta Junction,Myrtle Beach,SC,33.7377,38.5816
FACE IT Radiance Two Way Cake NB23,Cross-group,312 Express Street,Sarasota,FL,27.2866,38.6531
Folic Acid,content-based,06 Namekagon Court,Charleston,WV,38.2968,38.3774
Freshscent Anti-Perspirant Deodorant,forecast,03560 Lukken Place,Fort Wayne,IN,41.0977,28.072
soCALM Pain Relieving,Intuitive,45746 New Castle Place,Beaumont,TX,30.085,40.7864
"Pollens - Trees, Cedar, Red Juniperus virginiana",intranet,3854 Comanche Drive,Reno,NV,39.5387,33.8193
Ramipril,Multi-lateral,3 Everett Hill,San Francisco,CA,37.7848,34.0434
ESIKA HD COLOR HIGH DEFINITION COLOR SPF 20,Polarised,47504 Hansons Trail,Grand Rapids,MI,43.012,33.1617
CVS Cold Sore Treatment,value-added,02 Hovde Point,Sioux Falls,SD,43.6746,38.4142
Doxorubicin Hydrochloride,framework,3241 Parkside Drive,Birmingham,AL,33.5446,27.7898
No7 Lift and Luminate Foundation Sunscreen Broad Spectrum SPF 15 Warm Sand,Self-enabling,805 Wayridge Court,Pittsburgh,PA,40.4344,45.5806
Slim 2,reciprocal,5454 Swallow Avenue,Richmond,VA,37.5593,33.2765
Olay Professional ProX,interface,58 Karstens Terrace,Columbus,OH,39.969,42.3254
Herpes Zoster Remedy,Centralized,1068 Reinke Junction,Roanoke,VA,37.2742,40.7808
Senna Laxative,Intuitive,88301 Kensington Pass,Dallas,TX,32.7673,40.7955
DEXAMETHASONE SODIUM PHOSPHATE,Switchable,3613 Cascade Center,Fort Smith,AR,35.2502,40.251
Doxazosin,empowering,83791 Banding Plaza,Cheyenne,WY,41.1084,31.6948
Polocaine-MPF,actuating,8592 Loeprich Road,Chicago,IL,41.9699,35.0448
divalproex sodium,system engine,48802 Crownhardt Way,Norfolk,VA,36.9312,42.0586
Olay Fresh Effects Clear Skin,De-engineered,45900 Dixon Circle,Corona,CA,33.7529,39.7795
Hyosyne,Customizable,87 Orin Circle,Mesa,AZ,33.4368,33.6993
Lisinopril and hydrochlorothiazide,client-driven,396 Boyd Park,Lexington,KY,38.0283,38.8941
Viscum Mali 4,intranet,624 Petterle Street,Saint Petersburg,FL,27.7898,40.6964
AcetaZOLAMIDE,systematic,81702 Wayridge Way,Houston,TX,29.6223,40.7526
Tretinoin,attitude,6 Reinke Pass,Amarillo,TX,35.0763,33.2765
Hand Sanitizer,background,272 North Place,Washington,DC,38.8933,40.7105
Venlafaxine,Fundamental,0317 Schlimgen Street,Huntington,WV,38.4096,39.47
Clopidogrel,collaboration,73 Haas Hill,Salt Lake City,UT,40.6681,25.8594
Mucinex D,Profit-focused,627 Linden Junction,Buffalo,NY,42.7684,41.0114
Lisinopril,help-desk,68 Acker Plaza,Chicago,IL,41.8804,43.6746
3M DuraPrep Surgical,grid-enabled,2495 Gina Terrace,Mesa,AZ,33.3887,40.5412
Omeprazole,coherent,62 Pine View Alley,Bronx,NY,40.8469,37.6333
Thiamine Hydrochloride,Implemented,86854 Sherman Trail,Birmingham,AL,33.6493,27.9953
Carbidopa and levodopa,initiative,68 Morningstar Way,Memphis,TN,35.2017,35.26
oxycodone hydrochloride,Proactive,364 Carpenter Place,Nashville,TN,36.1379,43.286
ibuprofen,analyzer,2207 Melody Circle,Phoenix,AZ,33.7352,27.2866
Ondansetron,migration,54726 Buhler Way,Chattanooga,TN,35.0768,32.3544
Flucytosine,Digitized,2 Sycamore Drive,Wilmington,DE,39.5645,41.7582
Gastric Headache,Triple-buffered,0749 Summit Way,Sparks,NV,39.6269,40.2944
Rhus Tox,User-centric,2328 Wayridge Alley,Nashville,TN,36.1114,29.6518
Indomethacin,emulation,2407 Shopko Crossing,Phoenix,AZ,33.7352,30.0505
Medi-First First Aid Eye Wash,Virtual,1 Waxwing Lane,New York City,NY,40.7808,32.7714
Oxygen,Pre-emptive,4293 Paget Center,Baton Rouge,LA,30.486,40.7506
Benazepril Hydrochloride,encoding,0 Garrison Court,Odessa,TX,31.7466,40.2023
Levetiracetam,Down-sized,8 American Ash Street,Arlington,VA,38.8808,25.5584
Cheracol D,Multi-lateral,6 Bay Point,Fresno,CA,36.7464,42.6568
HYDROCODONE BITARTRATE AND ACETAMINOPHEN,adapter,5 Sloan Center,Akron,OH,41.028,43.0696
Hydroxyzine Hydrochloride,Progressive,2 Goodland Trail,Nashville,TN,36.1866,40.6924
moisturizing lubricant,framework,04 Messerschmidt Terrace,Austin,TX,30.3264,40.0018
Chlorpromazine Hydrochloride,actuating,306 Dexter Drive,Miami,FL,25.5584,36.3158
Lil Drug Store NoSnooze,portal,8618 Daystar Park,San Francisco,CA,37.7848,31.8693
Promethazine Hydrochloride,success,896 Stephen Road,Independence,MO,39.11,42.3253
Amlodipine Besylate,Mandatory,60340 Dakota Junction,Bloomington,IN,39.1682,39.9523
PERTZYE,incremental,23113 Bultman Road,Fresno,CA,36.7464,43.286
"carbidopa, levodopa and entacapone",knowledge user,2843 Corben Park,New York City,NY,40.7808,21.3062
Sodium Chloride,De-engineered,01 Fairfield Junction,Lexington,KY,38.0283,32.8891
Clobetasol Propionate,intermediate,2183 Ramsey Road,Colorado Springs,CO,38.8152,38.9613
Athletes Foot,Automated,39 Morningstar Road,Phoenix,AZ,33.4724,28.2059
HADDOCK,Synergized,1403 Schlimgen Way,Manassas,VA,38.7202,32.7607
QUERCUS VIRGINIANA POLLEN,value-added,8940 Carpenter Alley,Peoria,IL,40.7442,38.4142
Propranolol Hydrochloride,contingency,0978 Glendale Hill,Denver,CO,39.6888,40.9177
AVANDAMET,Grass-roots,878 Maple Parkway,Waterbury,CT,41.3657,32.6469
SCREAMIN HOT TOAST,systemic,7871 Wayridge Street,Merrifield,VA,38.8318,33.7529
Levothyroxine Sodium,encompassing,61 Fordem Place,Atlanta,GA,33.9982,36.8787
BioGtuss,exuding,7888 Northland Alley,Marietta,GA,34.0378,33.7866
Trimethoprim,Vision-oriented,3 Clyde Gallagher Pass,Corpus Christi,TX,27.7762,39.1802
Terapie Callus Remover,coherent,16177 Dayton Street,Tucson,AZ,32.4142,41.6525
MOUSE HAIR AND EPITHELIA,hybrid,215 Darwin Trail,Oklahoma City,OK,35.5514,41.3087
Gold Antibacterial Hand,systematic,0551 Daystar Plaza,Boston,MA,42.3231,35.9244
mark. Lipclick,zero administration,93 Cherokee Plaza,Spartanburg,SC,34.8882,29.6785
Artificial Tears,non-volatile,2786 Old Gate Trail,San Jose,CA,37.2187,43.0314
Childrens Ibuprofen,array,29534 Anzinger Trail,Dayton,OH,39.7155,40.6412
BENZTROPINE MESYLATE,Switchable,55 Sunnyside Avenue,Dallas,TX,32.7673,42.2399
RISPERDAL,flexibility,46 Canary Park,Fort Wayne,IN,41.0938,37.1376
Icy Hot,Grass-roots,68369 Sachs Place,Erie,PA,42.1827,37.9971
GNP Caldyphen,mobile,3505 Summer Ridge Lane,Brooksville,FL,28.5059,39.2663
Golden Pear Antibacterial Foaming Hand Wash,Advanced,1549 Pleasure Park,Columbus,OH,39.9523,29.834
Traumeel Combo Pack,software,34 Waxwing Terrace,Columbus,OH,40.1454,33.7866
Fluocinolone Acetonide,Universal,2063 Main Trail,Wilmington,DE,39.5645,43.0746
Perfect Calming Serum,conglomeration,28253 Petterle Road,Rochester,NY,43.286,33.7866
Wormwood,3rd generation,90480 3rd Parkway,San Jose,CA,37.3163,33.0169
Oxygen,Cloned,7 Caliangt Place,San Antonio,TX,29.5407,32.2334
pravastatin sodium,24/7,4 Granby Crossing,Boca Raton,FL,26.3462,39.0312
Skin Irritation,model,2586 Elgar Pass,Los Angeles,CA,34.0434,31.8925
Pacific,Profit-focused,88 Carioca Court,Fort Myers,FL,26.5228,38.6531
Telmisartan,user-facing,067 Hoepker Trail,Lafayette,IN,40.4001,33.3363
Treatment Set TS331046,customer loyalty,0690 Fremont Parkway,Charlotte,NC,35.26,31.8767
MIRAE HAIR,radical,2270 Swallow Alley,Richmond,VA,37.5535,37.2458
LBEL Couleur Luxe Rouge Amplifier XP amplifying SPF 15,Automated,0676 Pleasure Circle,Miami,FL,25.5584,47.1126
Aplicare Povidone-Iodine,solution,34 Forest Run Lane,Cincinnati,OH,39.1668,31.7705
String Beans,capability,71001 Sauthoff Way,El Paso,TX,31.6948,43.0349
Divalproex Sodium,Innovative,91 Birchwood Parkway,Portland,OR,45.5806,39.734
Exelon,knowledge user,0 Scofield Circle,Green Bay,WI,44.4601,30.4501
Daytime Sinus Relief,Enhanced,16325 Forest Run Junction,Anchorage,AK,61.1901,29.834
Black Pepper,non-volatile,09 Texas Alley,Montgomery,AL,32.2334,42.1827
Flawless Finish Bare Perfection Makeup SPF 8 Toasty Beige,definition,6 Jenna Pass,Las Vegas,NV,36.3265,31.6948
Doxepin Hydrochloride,Optional,98733 Forster Lane,Bronx,NY,40.8469,41.0938
Nighttime Cold and Flu Relief,core,884 Bartelt Hill,Chicago,IL,41.8119,40.6514
Calcium Carbonate,array,74 Oakridge Hill,Cincinnati,OH,39.1848,31.6948
Trazodone Hydrochloride,Organic,14 Main Terrace,Kansas City,KS,39.085,42.6149
Risperidone,coherent,2936 Heath Junction,Sacramento,CA,38.3774,32.3401
Childrens Multi-Symptom Cold,conglomeration,7550 Mayer Court,Jackson,MS,32.3113,45.0242
pain relief,Total,53 Helena Hill,Pittsburgh,PA,40.4344,38.9613
Metoprolol Succinate,asymmetric,49810 Utah Circle,Saint Louis,MO,38.6383,42.4617
Shopko Antibacterial Hand Sanitizer,motivating,44 Butterfield Center,Norfolk,VA,36.8586,38.2868
SURFERS BARRIER,directional,8523 Towne Trail,Marietta,GA,33.9328,41.0938
Cefprozil,function,767 Ridge Oak Alley,Washington,DC,38.9164,38.1913
Albuterol Sulfate,web-enabled,15962 Monument Court,Little Rock,AR,34.7269,36.7464
sleep aid,framework,0462 Fairview Pass,Lawrenceville,GA,33.9367,36.1398
Anti-Diarrheal,tangible,6 Warrior Plaza,Washington,DC,38.8874,32.6076
Diazepam,Pre-emptive,58 Prentice Terrace,Roanoke,VA,37.2742,37.2742
CHLORPROMAZINE HYDROCHLORIDE,service-desk,6072 Springs Place,Columbia,SC,33.9937,30.3795
Topical Anesthetic,impactful,43 Banding Lane,El Paso,TX,31.7674,30.085
AQUAFRESH,object-oriented,088 Esch Street,Baltimore,MD,39.2856,40.7536
SAD Soother,methodical,5 Weeping Birch Alley,Lincoln,NE,40.8063,42.6149
Aeroburn Burn First Aid,access,535 Barnett Pass,Detroit,MI,42.2399,41.8097
Bentyl,bandwidth-monitored,9798 Claremont Court,Dallas,TX,32.7673,31.8767
RITUALS precious mineral foundation broad spectrum SPF 15 sunscreen SHADE 11,Enhanced,472 Mesta Street,Colorado Springs,CO,38.7378,34.1231
antacid plus gas relief,workforce,13198 Fallview Road,Kansas City,MO,39.0663,33.6062
LITHIUM CARBONATE,Versatile,7933 Onsgard Crossing,Washington,DC,38.8933,33.4707
SHISEIDO SUN PROTECTION FOUNDATION,core,46 Bartelt Avenue,Oklahoma City,OK,35.5514,37.6802
Carvedilol,Re-contextualized,2134 Declaration Street,Minneapolis,MN,45.0159,26.6599
SMASHBOX,hardware,990 Independence Parkway,Birmingham,AL,33.5225,47.0662
Y-age AEON,User-friendly,2 Kennedy Street,San Antonio,TX,29.4375,41.3657
Propafenone HCl,Multi-lateral,98 Elgar Hill,Greenville,SC,34.8497,30.0956
Mineral Oil,Stand-alone,2404 Forest Run Alley,Phoenix,AZ,33.2765,41.8267
Sting Relief Pads,zero defect,7948 Sloan Parkway,Chicago,IL,41.8804,43.6375
equaline vagicaine,definition,167 Montana Trail,Albany,NY,42.6149,29.7041
Quflora Pediatric,24 hour,53 Tennessee Lane,San Diego,CA,33.0169,30.329
Echinacea Thuja,uniform,3 Evergreen Pass,Macon,GA,32.8067,42.7684
Simvastatin,task-force,200 Knutson Place,San Antonio,TX,29.5054,40.5051
Childrens Pain and Fever,empowering,7632 Lien Crossing,Hartford,CT,41.7665,40.5051
Santalia Clinical Intenstive Spot Treatment,zero defect,8 2nd Court,Long Beach,CA,33.7843,33.8635
mucus relief,upward-trending,12323 Westerfield Alley,Lakeland,FL,27.9865,26.0185
Cetirizine Hydrochloride,Seamless,08 Laurel Road,Orlando,FL,28.5803,31.6403
Amlodipine Besylate and Benazepril Hydrochloride,contextually-based,01 Pierstorff Way,Tacoma,WA,47.2484,35.0448
dg health pain relief pm,exuding,17 Prentice Park,North Port,FL,27.0459,30.4061
IDOLE CARROT,motivating,8810 Elgar Road,Alhambra,CA,33.7866,39.1042
Dove,context-sensitive,836 Birchwood Plaza,San Diego,CA,32.8891,38.8933
PROCHLORPERAZINE MALEATE,Fully-configurable,65412 Bay Junction,Annapolis,MD,39.0305,30.7309
Complete,reciprocal,36003 Shasta Plaza,Virginia Beach,VA,36.7957,40.7105
Doxazosin,didactic,617 Express Drive,Reno,NV,39.4814,33.7352
Sore Throat,Enhanced,0 Karstens Hill,Albany,NY,42.6149,38.1913
UVA/UVB SPF 15,Public-key,2 Manufacturers Court,Sarasota,FL,27.2866,33.7915
Acetaminophen,radical,76 Coolidge Street,Fresno,CA,36.7464,26.1654
isosorbide mononitrate,capability,18 Sunfield Trail,Odessa,TX,31.7466,31.6948
KEEPAN A,throughput,4 North Way,San Diego,CA,33.0169,37.3378
Goldenrod,moderator,7 Laurel Point,El Paso,TX,31.7705,27.872
Oxygen,intangible,64 Mifflin Circle,Saint Louis,MO,38.6531,38.0339
Ropinirole,Enhanced,02970 Carey Place,Honolulu,HI,21.3062,38.9982
Apis Belladonna,Front-line,476 Anthes Park,Atlanta,GA,33.7629,39.0883
PROSCAR,migration,56 Knutson Junction,Lansing,MI,42.7286,33.7488
Night Time Cold/Flu Relief Original,coherent,52 Saint Paul Circle,Sacramento,CA,38.6026,40.5412
Candy Apple,standardization,91648 Dottie Plaza,San Antonio,TX,29.3494,39.5645
ABILIFY MAINTENA,synergy,3201 Jenna Way,Trenton,NJ,40.2805,35.3855
Trazodone Hydrochloride,asymmetric,0 Oriole Street,Miami,FL,25.6364,33.7915
SHISEIDO ULTIMATE SUN PROTECTION PLUS,software,9456 Union Park,Sioux Falls,SD,43.6746,43.5486
LBEL EFFET PARFAIT filling effect foundation SPF 10 - MEDIUM 7,array,08768 Bluestem Terrace,Houston,TX,29.834,33.2765
Geodon,web-enabled,8 Roth Point,Washington,DC,38.8933,32.7714
Cetirizine Hydrochloride,logistical,068 Bobwhite Plaza,Omaha,NE,41.2335,39.0706
Didanosine,parallelism,85 Lien Court,Richmond,VA,37.5242,33.7866
bareMinerals,Universal,778 Blackbird Parkway,Arlington,VA,38.8808,44.8055
Disopyramide Phosphate,grid-enabled,48768 Mockingbird Avenue,Colorado Springs,CO,38.8558,27.6705
Grippe-HP,encoding,9 Cordelia Point,Providence,RI,41.8267,33.5508
"Skin antisepsis, oral cleansing, nasal antisepsis",knowledge user,650 Charing Cross Lane,Columbia,SC,34.006,46.9346
Treatment Set TS339992,Profit-focused,68168 Mockingbird Avenue,Philadelphia,PA,40.0018,26.6492
Echinacea Thuja,portal,41 Cardinal Point,Hot Springs National Park,AR,34.5137,40.2805
Instant Hand Sanitizer,Configurable,771 Mandrake Parkway,Joliet,IL,41.5454,27.9139
Purminerals 4 in 1 Makeup SPF 15 Deeper,Synergistic,6 Loomis Crossing,Pittsburgh,PA,40.4344,39.7388
Medpride,contingency,589 Sherman Lane,Mesa,AZ,33.4368,42.2894
ibuprofen,policy,57870 Delaware Road,Fresno,CA,36.7464,29.834
Ready Foundation,tangible,830 Birchwood Crossing,Tucson,AZ,32.2691,35.2268
Metaproterenol Sulfate,Multi-lateral,4754 Comanche Trail,Rochester,NY,43.286,33.9443
LIQUIMAT,leading edge,1 Sycamore Plaza,Hartford,CT,41.7638,25.7559
Impact Fix Essence Make Up Base,task-force,65 Macpherson Place,Fort Lauderdale,FL,26.0663,43.6746
Infants TYLENOL,concept,614 Straubel Center,Washington,DC,38.8981,30.3189
PENNSAID,Total,6 Sheridan Point,Stamford,CT,41.0516,29.2219
Sore Throat,structure,00180 Vahlen Alley,Oklahoma City,OK,35.5514,30.6341
Prednisone,neural-net,6598 Novick Drive,Boise,ID,43.4599,31.9386
amlodipine besylate and atorvastatin calcium,open architecture,6 3rd Place,Albuquerque,NM,35.0512,32.8756
Virotox WN,groupware,5 Kipling Drive,Los Angeles,CA,34.0665,35.0512
Enalapril Maleate and Hydrochlorothiazide,radical,7293 Grayhawk Way,Waterbury,CT,41.3657,40.6964
CLONIDINE HYDROCHLORIDE,systemic,6011 Arizona Junction,Norfolk,VA,36.9312,41.6857
Oil-Free Acne Wash,internet solution,4660 Norway Maple Point,Tucson,AZ,31.9701,41.0704
Topiramate,emulation,0 Nova Center,Saint Louis,MO,38.6128,40.0878
Zotex-C,leverage,036 Homewood Parkway,Winston Salem,NC,36.0275,43.6746
Pravastatin Sodium,even-keeled,6 Atwood Drive,Colorado Springs,CO,38.8247,40.7442
allergy relief d,database,741 Mitchell Road,Boston,MA,42.3389,38.896
Pioglitazone Hydrochloride,Progressive,72302 Buena Vista Lane,Birmingham,AL,33.5446,36.0512
Lisinopril and Hydrochlorothiazide,attitude,2 Memorial Park,San Francisco,CA,37.7848,41.0114
Nasal,empowering,9 Mallard Drive,Brooklyn,NY,40.6451,30.0956
PROAIR,Customer-focused,6 Toban Place,Jefferson City,MO,38.5309,31.6948
Secure Antibac,archive,28489 Tomscot Trail,Fort Wayne,IN,41.0938,38.8289
Gabapentin,Cloned,23 Towne Parkway,Saint Paul,MN,45.0803,38.3774
Simvastatin,Versatile,47 Di Loreto Alley,Mobile,AL,30.671,37.7848
Colgate,Open-source,306 Esch Point,Chesapeake,VA,36.8056,42.5992
Prestige Snail Lip Treatment,infrastructure,376 Gateway Trail,Texarkana,TX,33.3934,42.6149
FENTANYL TRANSDERMAL SYSTEM,national,662 Erie Point,Rochester,NY,43.286,35.1885
Theracodeine-300,Polarised,8 Mesta Trail,San Jose,CA,37.2602,38.8933
Dovonex,Innovative,9973 Florence Point,Cleveland,OH,41.3826,39.7509
Vyvanse,Advanced,6 Hoard Road,Eugene,OR,44.0185,39.1678
Mineral Oil,value-added,48 Ramsey Plaza,Elmira,NY,42.0869,36.0807
Paclitaxel,Future-proofed,07566 North Avenue,Evansville,IN,37.9971,42.5991
Glipizide,systematic,01 Southridge Street,College Station,TX,30.6521,26.0663
Hawaiian Tropic Tanning,time-frame,28074 Vidon Junction,Oklahoma City,OK,35.5514,30.0211
Bacteria Plus,fresh-thinking,03 Lukken Street,Billings,MT,45.9783,29.834
BuPROPion Hydrochloride,Balanced,6927 Tomscot Plaza,Des Moines,IA,41.6727,31.1721
Pediaderm AF,array,19 East Road,Pittsburgh,PA,40.4598,25.768
Flawless by Sonya Aloe BB Creme,Profound,188 Dixon Parkway,Grand Rapids,MI,43.0073,26.5747
OXYGEN,Open-architected,54574 Twin Pines Road,Detroit,MI,42.2399,35.9279
Balsalazide Disodium,matrices,578 Forest Center,Oklahoma City,OK,35.5514,39.2847
Tendon Rescue,Multi-tiered,8 Sundown Center,Pittsburgh,PA,40.5051,45.6644
Pegasys,Progressive,766 Prairie Rose Pass,Washington,DC,38.8976,43.0631
SOUTHERN CHEAT CHESS POLLEN,Self-enabling,01 Bluestem Center,Houston,TX,29.7629,38.189
sinus and allergy pe,flexibility,28345 Sachtjen Place,Huntington,WV,38.4134,32.6437
Naproxen,Pre-emptive,30 Manitowish Crossing,Cincinnati,OH,39.1668,31.6948
ALLEROFF,moratorium,255 Cordelia Pass,Memphis,TN,35.0981,45.5806
Smart Sense Isopropyl Alcohol Wipes,composite,78245 Memorial Street,Louisville,KY,38.189,33.5452
Sofskin Baby,client-driven,21605 Jenifer Drive,Sacramento,CA,38.6157,43.4599
Sinus Headaches and Infections,middleware,8 Hazelcrest Court,Crawfordsville,IN,40.04,43.524
Trixaicin,function,1 Old Gate Crossing,Los Angeles,CA,34.0606,41.8804
Nortriptyline Hydrochloride,solution-oriented,58378 Dryden Hill,Port Washington,NY,40.7548,27.7898
Opium Tincture Deodorized,Open-architected,74 Utah Circle,Minneapolis,MN,45.1907,38.2222
MYUNG HAN MI IN DO FOUNDATION,bifurcated,53 Havey Junction,Houston,TX,29.7629,39.9832
Ephedrine Sulfate,encoding,785 Merrick Road,Arvada,CO,39.8422,41.076
Purminerals 4 in 1 Makeup SPF 15 Deeper,methodology,92 Village Point,Kansas City,MO,39.0351,32.7714
Daytime Nighttime,algorithm,70315 Hollow Ridge Lane,Atlanta,GA,33.7629,33.9464
Alprazolam,zero tolerance,67 Kensington Pass,Sioux Falls,SD,43.524,38.4386
Isoniazid,Re-contextualized,16273 Melvin Way,Cleveland,OH,41.3826,38.945
Dicyclomine Hydrochloride,moderator,16 Carpenter Drive,Vienna,VA,38.8318,47.1441
PerioChip,knowledge user,724 Laurel Parkway,Cincinnati,OH,39.111,38.8933
Senna S,Switchable,8 Ohio Trail,Stockton,CA,37.9625,45.2009
Erythromycin,collaboration,226 Hansons Hill,Berkeley,CA,37.6802,46.9346
DAILY MOISTURIZING,mobile,4384 Transport Junction,El Paso,TX,31.6948,28.3067
Lemon Drop Antibacterial Hand Wash,benchmark,2308 Warner Park,Oklahoma City,OK,35.421,35.6004
EpiCare Antimicrobial Lotion Soap,heuristic,4 New Castle Trail,Cleveland,OH,41.4571,26.134
Kalydeco,encoding,591 2nd Alley,Fresno,CA,36.7464,37.9971
CASUARINA EQUISETIFOLIA POLLEN,zero administration,96 Acker Crossing,Charleston,WV,38.2968,33.9321
White Birch,open architecture,1253 Arizona Lane,Mobile,AL,30.6589,41.4335
Chicken,transitional,675 Algoma Drive,Davenport,IA,41.613,38.1071
VALTREX,3rd generation,12 Utah Street,Kalamazoo,MI,42.2922,30.6589
Idole Intense,software,77569 Roxbury Way,Brooklyn,NY,40.6451,38.6531
NICOTINE POLACRILEX,Profit-focused,9 Gale Crossing,Lexington,KY,37.9651,46.6288
Good Neighbor Pharmacy Sleep Aid,Stand-alone,824 Boyd Pass,Englewood,CO,39.7388,36.7978
Chloroquine Phosphate,Managed,3948 Summer Ridge Parkway,Seattle,WA,47.4323,35.1316
Animal Antigens,heuristic,8261 Banding Avenue,Salinas,CA,36.7563,33.7915
OH Age recovery Tri Shield pact 10,responsive,691 Mosinee Avenue,Minneapolis,MN,45.1907,43.1154
Nicotine Polacrilex,Vision-oriented,54140 Schurz Parkway,Washington,DC,38.9164,38.0612
Lisinopril,Multi-channelled,9146 Sachs Crossing,Duluth,GA,34.0047,40.6681
CULTIVATED BARLEY POLLEN,customer loyalty,2508 Straubel Terrace,Houston,TX,29.7758,41.0938
Ludens Sugar Free Wild Cherry Throat,eco-centric,27 Moose Junction,Houston,TX,29.9015,30.4036
Ranitidine Hydrochloride,radical,43491 Barby Way,Albany,NY,42.6149,32.6796
Capecitabine,Polarised,2254 Stone Corner Way,Pittsburgh,PA,40.4344,35.26
CAUSTICUM,core,943 Ruskin Park,Washington,DC,38.8667,45.0059
Multi-Vitamin With Fluoride,Open-source,8193 Maple Way,Milwaukee,WI,43.0389,44.4601
CUREFINI,Assimilated,12 Center Alley,El Paso,TX,31.6948,33.2765
BeKoool Itch Relief,moderator,3525 Victoria Court,Evansville,IN,37.929,38.8289
Minral Oil,methodology,345 Derek Road,Buffalo,NY,42.7684,36.1901
Anticavity,cohesive,8740 Independence Street,Louisville,KY,38.189,43.0982
Lorazepam,5th generation,1 Garrison Street,Nashville,TN,36.1114,38.4134
Head and Shoulders,stable,614 Rowland Pass,Fullerton,CA,33.8994,39.7388
Alphadine Scrub,Proactive,970 Anniversary Trail,Scranton,PA,41.4019,34.7269
Lansoprazole,Grass-roots,8 Browning Drive,Manchester,NH,42.9521,33.7866
HZ,well-modulated,00 Crescent Oaks Terrace,Columbus,OH,40.0495,33.7866
Hydromorphone Hydrochloride,eco-centric,262 Sachs Way,Houston,TX,29.9781,38.189
Folic Acid,client-driven,74837 Forest Dale Parkway,Lafayette,LA,30.2081,30.3189
Levetiracetam,monitoring,3938 Burning Wood Pass,Cincinnati,OH,39.1668,30.2345
Phenyl Isothiocyanate,neural-net,385 Cascade Junction,San Diego,CA,33.0169,36.7464
MAKESENSE,model,636 Butternut Point,Greenville,SC,34.8497,43.0349
SPONGIA TOSTA,Upgradable,21 Huxley Road,Los Angeles,CA,33.9909,35.0018
Ranitidine,Down-sized,18119 Bellgrove Hill,Lexington,KY,38.0283,39.2933
Allergy,Streamlined,465 Dorton Crossing,Dallas,TX,32.826,40.2785
VIVITE Daily Facial Moisturizer with Sunscreen SPF 30,process improvement,29 Valley Edge Lane,Stockton,CA,37.9577,38.2149
True Beige,Adaptive,83 American Point,Cedar Rapids,IA,42.0794,34.2628
Aspirin,actuating,9710 Maple Plaza,Manchester,NH,42.9521,37.7848
Severe Nighttime,24 hour,81 Crescent Oaks Place,Arlington,VA,38.8545,61.204
Omeprazole,product,12 Stone Corner Court,Kansas City,MO,39.035,37.7509
GO TIME,alliance,02 Vernon Crossing,Fort Lauderdale,FL,26.0989,35.26
Imiquimod,Up-sized,869 Warner Avenue,Nashville,TN,36.1114,31.9701
HOUSE DUST,focus group,7 Artisan Hill,Saint Louis,MO,38.6383,32.7887
Candesartan cilexetil,open architecture,45904 Novick Alley,Huntsville,AL,34.734,40.702
sweet love hand sanitizer,Secured,43 1st Park,Roanoke,VA,37.2742,29.7026
Naturals Pomegranate and Mango,fresh-thinking,3 Sloan Road,Cleveland,OH,41.4335,35.7908
Family Wellness Hydrocortisone,moderator,15529 Prairieview Point,Panama City,FL,30.1949,40.4344
Carbidopa and Levodopa,array,5520 Dryden Avenue,Madison,WI,43.0696,39.9106
Thyreoidea Belladonna,multi-tasking,38770 Randy Junction,Lubbock,TX,33.61,26.67
Ibuprofen,productivity,166 Roth Lane,Chicago,IL,41.8119,47.6564
Cenestin,grid-enabled,14209 Marcy Drive,Edmond,OK,35.6665,39.9788
Acyclovir,Automated,1792 Hauk Pass,Milwaukee,WI,43.1154,38.1286
Rilutek,moratorium,3 Pleasure Alley,Pensacola,FL,30.6143,40.338
Heavy Metal - Amalga Detox,Polarised,2 Dovetail Street,Inglewood,CA,33.7866,34.4329
Lymph 1,instruction set,69299 Canary Place,Louisville,KY,38.2306,31.9714
Tramadol hydrochloride and acetaminophen,bi-directional,0 Dawn Court,Indianapolis,IN,39.7509,37.7848
ck one waterfresh face makeup spf 15,encoding,29552 Nova Pass,Oakland,CA,37.799,41.6727
Cotton Candy Hand Sanitizer,3rd generation,67930 Main Parkway,Young America,MN,44.8055,37.5593
Saline Nasal,Vision-oriented,62009 Boyd Trail,Orlando,FL,28.5469,39.7388
Dopamine Hydrochloride and Dextrose,dynamic,29568 Hoepker Pass,York,PA,40.0086,38.7351
Trimethobenzamide Hydrochloride,solution,9 Dwight Plaza,Salt Lake City,UT,40.6681,33.9464
Anti-Blemish,initiative,2626 Maywood Court,Pittsburgh,PA,40.4344,40.8702
Oxygen,Focused,0554 Gale Terrace,Cambridge,MA,42.362,41.7582
dg health naproxen sodium,Programmable,0 Northfield Way,Lincoln,NE,40.8529,38.5495
gas relief,3rd generation,008 Waywood Point,Atlanta,GA,33.8444,38.01
MORPHINE SULFATE,initiative,98 Myrtle Junction,Spartanburg,SC,35.1114,33.0169
Phendimetrazine Tartrate,web-enabled,0 Springview Terrace,Brooklyn,NY,40.6794,35.1316
Warfarin Sodium,Visionary,96 Hovde Street,Philadelphia,PA,40.0018,28.5559
METROGEL,attitude,1 Upham Lane,Mc Keesport,PA,40.4344,38.9613
Senna-S,budgetary management,921 Mariners Cove Point,Staten Island,NY,40.6324,42.5991
XtraCare Deep Cleaning Astringent,user-facing,114 Mariners Cove Terrace,Richmond,VA,37.5593,34.1478
White Pepper,Digitized,820 Miller Avenue,Houston,TX,29.6223,30.4036
Imipramine Hydrochloride,multimedia,22942 Waywood Trail,Fort Worth,TX,32.6469,41.9705
Metformin Hydrochloride,Extended,9582 Laurel Road,Chicago,IL,41.993,34.0378
Cocklebur Pollen,Virtual,25 Blue Bill Park Plaza,Nashville,TN,36.1114,31.9714
Imari Seduction,benchmark,62 Larry Lane,Philadelphia,PA,40.0343,35.5514
Escitalopram,pricing structure,34 Springview Park,Carol Stream,IL,41.9166,27.7898
Ropinirole Hydrochloride,exuding,2592 Basil Way,Boise,ID,43.4599,44.4601
Epinephrine,Reverse-engineered,73 Ludington Way,Miami,FL,25.5593,35.26
Rozerem,Organized,389 Debra Drive,Denver,CO,39.6888,21.2811
Medi First Pain Relief,bifurcated,6892 Oakridge Hill,Houston,TX,29.7687,40.7543
TRICOR,core,7322 Springview Plaza,Hartford,CT,41.7638,38.3774
Bupropion Hydrochloride,client-driven,320 Dwight Point,Washington,DC,38.8933,38.9497
Fremont Cottonwood,Profit-focused,8 Blackbird Plaza,Asheville,NC,35.6004,31.6948
Amitriptyline Hydrochloride,circuit,69104 Kensington Terrace,Houston,TX,29.7179,41.6727
Korlym,collaboration,15426 Butterfield Street,Racine,WI,42.7161,37.2327
Midodrine HCl,synergy,0779 Eagan Terrace,San Antonio,TX,29.4375,32.3386
Mucinex Sinus-Max Day Time Severe Congestion Relief and Mucinex Sinus-Max Night Time Congestion and Cough,encompassing,85361 Johnson Street,Peoria,AZ,33.7169,41.1257
Levetiracetam,neutral,711 Colorado Terrace,San Francisco,CA,37.7848,41.8119
Losartan potassium and hydrochlorothiazide,Diverse,54635 Bluestem Crossing,York,PA,40.0086,41.0938
Fem pH,Triple-buffered,95794 Amoth Alley,Boise,ID,43.5851,38.7202
Intelence,6th generation,81893 Mallard Park,Arlington,VA,38.8836,26.6654
Best Choice Cold Sore Treatment,background,39237 Crowley Point,Seattle,WA,47.6564,34.84
Glipizide,policy,3 Eagan Terrace,Houston,TX,29.834,39.1361
White Hickory,hardware,4633 Glacier Hill Hill,Sacramento,CA,38.5816,32.7714
Cefuroxime Axetil,well-modulated,454 Haas Plaza,Tucson,AZ,32.4142,32.7423
Menveo,Down-sized,7118 Acker Avenue,San Jose,CA,37.2568,38.3774
Actonel,Reactive,149 Erie Road,San Antonio,TX,29.4413,41.2435
"Polyethylene Glycol 3350, NF Powder for Solution, Laxative",holistic,41 Eastwood Park,Camden,NJ,39.9186,44.9608
TAZTIA,encryption,674 Sherman Avenue,Tucson,AZ,32.0848,33.2765
5 Large Intestine,exuding,34 Sugar Trail,Nashville,TN,36.1901,38.8318
Nifedipine,analyzer,8 Kenwood Drive,Oklahoma City,OK,35.5704,38.8318
Cyclobenzaprine Hydrochloride,contextually-based,26080 Claremont Trail,Concord,CA,37.7772,31.7444
Metoclopramide,Streamlined,77 Caliangt Avenue,Houston,TX,29.7629,36.7464
White Ash,Enhanced,48126 Magdeline Way,Savannah,GA,32.0053,41.5444
NO-JET-LAG,matrices,879 Bartillon Terrace,Houston,TX,29.834,41.1002
Corn Grain,Function-based,28291 3rd Alley,Tulsa,OK,36.1398,39.2627
Lansoprazole,Business-focused,33430 Ramsey Avenue,New York City,NY,40.7506,35.233
Protonix,analyzing,88 Forster Alley,El Paso,TX,31.6948,30.5159
Gas-X,Reverse-engineered,3026 Old Shore Circle,Inglewood,CA,33.7866,27.8546
Cold Medicine,needs-based,4 Sycamore Lane,Port Charlotte,FL,27.0228,32.3401
Sulwhasoo Lumitouch,heuristic,0209 Westerfield Plaza,Albany,NY,42.6149,47.6849
OcuMend,function,4 Dottie Park,Charlotte,NC,35.26,40.8662
Sinusitis,Fully-configurable,258 Myrtle Junction,Suffolk,VA,36.8926,29.6297
Lysol,zero administration,5144 Colorado Alley,Nashville,TN,36.1114,41.0938
FOAMING ANTIBACTERIAL,Realigned,3553 Susan Hill,Houston,TX,29.7629,43.0059
Citranatal Harmony 2.1,Business-focused,1068 Truax Point,Provo,UT,40.177,37.3589
Fremont Cottonwood,success,108 Esch Center,Phoenix,AZ,33.4724,33.7358
Sprayology DigestivEase,Down-sized,3101 Starling Park,New Orleans,LA,30.033,36.7991
INTRON A,knowledge base,96672 Granby Drive,Reno,NV,39.5387,27.872
Ketorolac Tromethamine,upward-trending,6936 Muir Place,Sarasota,FL,27.2427,40.7105
Morphine Sulfate,Business-focused,73727 Thierer Circle,Carson City,NV,39.2025,43.4599
Allerfed Cold and Allergy PE,toolset,3 Rockefeller Park,Austin,TX,30.3264,36.2471
HYDROCODONE BITARTRATE AND ACETAMINOPHEN,policy,5 Susan Way,Grand Rapids,MI,43.0073,37.5242
"BUTALBITAL, ASPIRIN, AND CAFFEINE",emulation,89082 Badeau Junction,Hartford,CT,41.7638,42.3389
Marlido Kit,heuristic,5 Gerald Center,Pittsburgh,PA,40.5048,34.0665
Nitronal,transitional,88 Randy Drive,Melbourne,FL,27.9246,40.0018
Hydralazine Hydrochloride,algorithm,2034 American Hill,Shreveport,LA,32.6076,38.9497
MANICURE BY OPI - FINISHING BUTTER,projection,0 Memorial Street,Tampa,FL,28.06,32.7887
Oxazepam,transitional,8 Moose Street,Birmingham,AL,33.5446,39.731
Ketorolac Tromethamine,contextually-based,59 Pine View Road,Colorado Springs,CO,38.8247,33.9937
Verucide Physician Formula,content-based,42 Mallard Alley,Spring Hill,FL,28.5642,32.4401
Ranitidine,transitional,15 Briar Crest Park,Montgomery,AL,32.3544,33.2765
TUMS,Team-oriented,4 Crowley Alley,Chattanooga,TN,35.0942,39.11
Murine Tears for Dry Eyes,installation,65944 Luster Place,Muskegon,MI,43.1791,44.2425
ZOVIRAX,Horizontal,23442 Oneill Trail,Dallas,TX,33.0005,42.3253
Leader Infants Gas Relief,leverage,3 Algoma Pass,Omaha,NE,41.2949,31.6948
Isopropyl alcohol,Self-enabling,753 Derek Drive,Washington,DC,38.8874,40.2805
Walgreens Sunscreen,monitoring,1369 Grim Place,Brooklyn,NY,40.6669,33.9321
Ceftriaxone,capability,090 Coolidge Parkway,Shreveport,LA,32.6076,29.9686
AMLODIPINE BESYLATE,info-mediaries,25 Ramsey Road,Youngstown,OH,41.1039,42.0869
Carbon Dioxide,capability,9 Lakewood Gardens Street,Boston,MA,42.3389,29.5054
Anti-Diarrheal,multimedia,6 Merry Street,Saint Louis,MO,38.6128,38.8933
PULMICORT RESPULES,leading edge,1539 Pennsylvania Plaza,Charlotte,NC,35.26,33.7217
Avon Elements,intangible,93118 Utah Avenue,Austin,TX,30.2721,36.7949
Tencon,intranet,2 Old Gate Point,Memphis,TN,35.2017,41.9399
Mucor/Aspergillus,pricing structure,4 Sundown Park,Garland,TX,32.7673,33.7866
OxyContin,cohesive,8969 Cascade Crossing,Boise,ID,43.4599,40.6412
Citalopram Hydrobromide,Re-engineered,50356 Eastlawn Hill,Palmdale,CA,34.6019,34.1073
Sensodyne Pronamel,Robust,1230 Grasskamp Hill,Bloomington,IN,39.1682,33.8444
Dexamethasone Sodium Phosphate,Implemented,94093 Heath Street,Minneapolis,MN,45.1907,43.1154
Zep Non Alcohol Foam Sanitizer,Seamless,41793 Marcy Way,Houston,TX,29.7179,41.2405
ANTIBACTERIAL,transitional,245 Grayhawk Road,San Diego,CA,32.7635,35.411
aspirin free,projection,0 Autumn Leaf Plaza,Little Rock,AR,34.7519,41.3826
Levothyroxine Sodium,Re-contextualized,23841 Sunnyside Crossing,Kansas City,MO,39.035,39.2692
Bupropion Hydrochloride,mission-critical,87432 Spaight Terrace,San Jose,CA,37.3729,42.9335
PLANTSCRIPTION ANTI AGING OIL FREE BROAD SPECTRUM SPF 25,hybrid,0 Prairie Rose Court,East Saint Louis,IL,38.6149,35.2017
Risperidone,Customer-focused,2584 Acker Hill,Houston,TX,29.6223,32.7673
bisoprolol fumarate and hydrochlorothiazide,software,359 Packers Alley,Colorado Springs,CO,38.8247,45.9497
Loblolly Pine,software,89 Hansons Drive,Lafayette,LA,30.2023,39.1042
Urea,matrix,021 Crescent Oaks Center,Pittsburgh,PA,40.4344,37.9971
triamcinolone acetonide,Decentralized,93033 Hooker Lane,Boise,ID,43.4599,29.7179
Platinol,modular,17 Jackson Pass,Fargo,ND,46.9346,40.0018
Paperbark Birch,composite,5931 Prairie Rose Place,Albuquerque,NM,35.0443,43.0349
HAWAIIAN Tropic,Open-architected,2237 Banding Junction,Dallas,TX,32.7673,47.6849
Morning Fresh,solution-oriented,08013 Huxley Road,Springfield,IL,39.7655,37.3811
OPANA,Devolved,466 Mendota Circle,Midland,TX,31.8693,33.783
Vitamin A D,Centralized,7543 Atwood Drive,Abilene,TX,32.4665,41.4509
Neuro,knowledge user,2 Westerfield Pass,Shawnee Mission,KS,38.9613,43.0113
Pain Relief Extra Strength,model,814 Judy Point,Miami,FL,25.5584,30.1288
Medicated Chest Rub,global,2 Moulton Hill,Phoenix,AZ,33.2765,38.8152
Ontak,logistical,115 Menomonie Drive,San Francisco,CA,37.7848,39.1696
Glyburide-Metformin Hydrochloride,system-worthy,1 Steensland Street,Waterloo,IA,42.4156,37.4011
Idole Lemon,full-range,1 Northfield Junction,Baton Rouge,LA,30.3633,32.2334
Nite Time Cold and Flu,Proactive,95042 Macpherson Court,Sacramento,CA,38.3774,43.0982
Fentanyl Citrate,context-sensitive,2105 Delladonna Junction,Omaha,NE,41.2338,28.06
Dr. Sheffield Anti Itch Cream,Public-key,239 Burrows Trail,Anaheim,CA,33.8359,30.671
Lanacane First Aid,model,78 Homewood Place,Dayton,OH,39.7982,32.2519
Diphenhydramine Hydrochloride,Polarised,00238 Susan Avenue,Boston,MA,42.3231,44.0225
Rugby Aspirin,Multi-channelled,5 Hanson Alley,Jersey City,NJ,40.7324,38.7378
ADENOSINE,definition,3 Butterfield Way,Birmingham,AL,33.5446,35.26
Dove,Ameliorated,377 Hauk Point,Myrtle Beach,SC,33.7377,40.8469
DERMA GRAN,customer loyalty,26008 Hansons Junction,Anderson,SC,34.5271,38.189
Skin Lightening,bi-directional,21740 Bartelt Circle,Boston,MA,42.3611,43.0214
mirtazapine,Quality-focused,77 Reinke Place,Wilmington,NC,34.0881,29.7758
Cyclobenzaprine Hydrochloride,Total,44 Tomscot Street,Dallas,TX,32.7673,38.8933
Vancomycin Hydrochloride,Advanced,9865 Springs Plaza,Minneapolis,MN,45.1907,34.2651
Intelence,well-modulated,63 Barby Drive,Garden Grove,CA,33.783,41.3657
Dutoprol,Synergistic,7637 Hudson Pass,Los Angeles,CA,34.0515,30.0211
Healthy Accents Muscle Rub,Digitized,5 Pennsylvania Trail,Honolulu,HI,21.3062,39.3432
Desmopressin Acetate,Cross-platform,18 Washington Park,Salinas,CA,36.7563,34.1869
Aplicare Povidone-iodine Triples,explicit,1808 Eggendart Circle,Jacksonville,FL,30.3189,33.3887
Warfarin Sodium,Right-sized,28480 Prairie Rose Pass,Melbourne,FL,27.9246,30.4793
Doral,systemic,12689 Morrow Court,Canton,OH,40.8259,40.6681
Norpace,grid-enabled,92 Mockingbird Way,Irving,TX,32.8479,42.3749
PYRETHRUM CINERARIIFOLIUM,Cloned,50 Linden Junction,Baton Rouge,LA,30.3795,39.1682
RITUALS precious mineral foundation broad spectrum SPF 15 sunscreen SHADE 13,Networked,8729 Oriole Junction,Raleigh,NC,35.7977,34.0665
TRISPEC DMX Cough Suppressant Expectorant CHERRY RASPBERRY Flavor,uniform,5198 Hagan Park,Jersey City,NJ,40.702,37.7848
Pramipexole Dihydrochloride,Progressive,63 Laurel Point,Tyler,TX,32.4112,31.6948
Divalproex Sodium,Secured,36 Northwestern Way,Oakland,CA,37.6802,40.6681
LBEL COULEUR LUXE AMPLIFIER XP,Fully-configurable,33516 Bultman Hill,North Hollywood,CA,33.7866,38.8933
Coconut Sunscreen Lip Moisturizer,Public-key,13 4th Way,Washington,DC,38.8941,38.8933
Mannitol,composite,15 Melody Court,El Paso,TX,31.6948,39.144
Fluconazole,Extended,0 Carey Pass,Bronx,NY,40.8702,33.9443
Rocky Mountain Juniper,Sharable,0261 Oak Crossing,Columbia,SC,34.006,36.7957
Daytime Nighttime Sinus Relief,logistical,39 Morning Crossing,Providence,RI,41.8267,33.7629
Aspergillus niger,Stand-alone,3739 Artisan Hill,Jackson,MS,32.3218,27.1675
Mayinglong Hemorrhoids,Seamless,9705 Ludington Drive,Olympia,WA,47.1126,25.813
Signature Sunscreen Broad Spectrum SPF 25 Malibu Heat,Right-sized,0326 Erie Place,Memphis,TN,35.2017,40.4322
Azithromycin,framework,90363 Elka Terrace,Rochester,NY,43.1577,38.0283
Acetazolamide,Universal,172 Eagle Crest Circle,New Orleans,LA,30.0877,43.286
Smart Sense Cold Sore Treatment,cohesive,95 Darwin Terrace,Loretto,MN,45.0159,37.9971
PRECIOUS BEAUTY SKIN LIGHTENING,Public-key,9 Carey Trail,Nashville,TN,36.1114,41.6727
CTx4 Rinse,Reduced,5 Bluejay Crossing,Murfreesboro,TN,35.8596,37.5242
Guaifenesin and Codeine Phosphate,4th generation,98 Shasta Circle,Mansfield,OH,40.7779,43.0982
Salt Grass,foreground,402 Mifflin Road,Rockville,MD,39.0763,36.0807
Halls,Automated,12 Pennsylvania Parkway,Baltimore,MD,39.361,38.5816
Cover Tint,Managed,6024 Upham Drive,Phoenix,AZ,33.5082,38.897
Arnica Calendula Essence,matrix,35648 Spohn Hill,Topeka,KS,39.1271,35.0821
ACEPHEN,Fundamental,54104 School Place,Milwaukee,WI,43.0685,39.7795
Mata Balm,Virtual,980 Luster Parkway,Milwaukee,WI,43.0528,40.7808
Vigoril Plus,time-frame,526 Bartelt Drive,Glendale,CA,33.7866,38.3774
Irinotecan Hydrochloride,Assimilated,529 Old Shore Center,Dallas,TX,32.7673,38.5495
Lamotrigine,Assimilated,2 Gerald Trail,New Orleans,LA,30.033,27.6705
Folic Acid,Innovative,36722 Lunder Road,Charlotte,NC,35.26,33.7866
Ciprofloxacin,Public-key,80 Packers Parkway,North Las Vegas,NV,36.2204,42.36
Androgel,leverage,06464 Bellgrove Avenue,Boca Raton,FL,26.6459,43.1216
LYRICA,non-volatile,11628 Jay Pass,Philadelphia,PA,39.9379,40.6514
Physicians EZ Use Flu Kit,functionalities,42 Maple Wood Place,Macon,GA,32.8118,34.1073
Haloperidol,Horizontal,2535 Cordelia Park,Des Moines,IA,41.6727,36.0275
Leader Acid Control,impactful,5600 Kensington Avenue,Waco,TX,31.5175,36.7464
SYNTHROID,24 hour,091 Macpherson Circle,Washington,DC,38.8933,39.9523
ARNICA MONTANA,bifurcated,5 Petterle Road,Lancaster,CA,33.7866,34.5137
Carbamazepine,Virtual,30 Darwin Circle,Gilbert,AZ,33.2781,38.4134
BenoxylDoxy 30 Kit,circuit,062 Sauthoff Parkway,Aurora,IL,41.7582,41.0938
Black Birch,hub,1 Westend Road,Flint,MI,43.0634,34.1073
Losartan Potassium,bifurcated,0234 1st Lane,Toledo,OH,41.6767,32.8479
No7 Lift and Luminite Day Cream SPF 15,user-facing,67308 East Avenue,Alpharetta,GA,34.0268,33.7866
Crest Pro-Health,Cross-group,21 Valley Edge Hill,Stockton,CA,38.01,40.7808
GLIPIZIDE,Fully-configurable,2034 Glendale Court,Fort Wayne,IN,41.1465,39.2847
Kaletra,benchmark,3 Park Meadow Court,Topeka,KS,39.1271,40.7105
Effer-K,Multi-lateral,9 Michigan Circle,Carson City,NV,39.1678,47.6849
Potassium Chloride,Virtual,75 Clyde Gallagher Terrace,Bronx,NY,40.8085,33.5452
Mitomycin,Realigned,13773 Merchant Junction,Austin,TX,30.2721,40.6628
NARS ALL DAY LUMINOUS FOUNDATION,installation,7544 Morrow Parkway,Lakeland,FL,28.072,30.2721
TIZANIDINE HYDROCHLORIDE,structure,457 Pond Court,Duluth,GA,33.9845,39.0668
Childrens Ibuprofen,interactive,8322 Oriole Pass,Evansville,IN,37.9971,26.2626
acid reducer,Innovative,8788 Beilfuss Avenue,Spokane,WA,47.6536,29.4375
Healthy Accents Childrens Mucus Relief,human-resource,8 Norway Maple Terrace,New York City,NY,40.7808,35.4015
PDI Sani-Hands for Kids,circuit,25727 Badeau Park,Washington,DC,38.8976,33.0169
Adderall,cohesive,986 Caliangt Way,Jacksonville,FL,30.2407,41.6727
ARNISPORT,Ergonomic,1275 Scofield Junction,Washington,DC,38.9087,40.1399
Triamcinolone Acetonide,Down-sized,9167 Fairview Court,Dayton,OH,39.7505,40.7864
Dextrose,Front-line,11 Memorial Plaza,Miami,FL,25.7559,42.0586
Nephron FA,optimal,26277 Erie Court,Kansas City,MO,39.1024,34.8185
Ceftriaxone,Organic,1754 Knutson Drive,Philadelphia,PA,39.9845,26.9668
SanaTos Severe Cold and Cough Nighttime,foreground,769 Pennsylvania Center,Fort Smith,AR,35.2502,36.1398
good sense acid reducer,6th generation,79 Merry Alley,Austin,TX,30.43,40.8085
ADSOL Red Cell Preservation Solution System in Plastic Container (PL 146 Plastic),holistic,9804 Butterfield Park,Boston,MA,42.3611,41.2722
CareOne Healing,maximized,18 Judy Road,Arlington,VA,38.8808,39.1042
China-Gel,impactful,371 Westerfield Pass,Houston,TX,29.834,33.6493
TRICHODERMA LIGNORUM,encompassing,3755 1st Road,Jeffersonville,IN,38.2868,39.5224
DISTICHLIS SPICATA POLLEN,uniform,8 Scott Point,Columbus,GA,32.491,35.7977
Antibacterial Foaming Hand Cleanser,orchestration,68 Moose Circle,Des Moines,IA,41.6727,31.6948
Atenolol,Integrated,6452 Ronald Regan Lane,Rockville,MD,39.0763,35.0443
Ketorolac Tromethamine,Adaptive,031 North Terrace,Durham,NC,36.0512,43.0314
KALI BICHROMICUM,Fundamental,8 Glacier Hill Junction,San Francisco,CA,37.7509,43.3869
Leader Acid Control,concept,31 Ilene Terrace,Providence,RI,41.7845,39.1802
Timeless Placenta Hydrogel Mask,Phased,2340 2nd Lane,Milwaukee,WI,43.1154,36.1398
Amantadine Hydrochloride,optimal,93 Acker Court,Albany,NY,42.6149,32.4589
Dicyclomine Hydrochloride,foreground,33 Springs Terrace,Albany,GA,31.55,40.3886
Lisinopril and Hydrochlorothiazide,challenge,04 Burning Wood Crossing,San Antonio,TX,29.5189,31.9701
Alcohol Prep Pad,leverage,0 Mandrake Avenue,Austin,TX,30.1876,33.7169
EROS EXPLORER,Ergonomic,3532 Talisman Pass,Pasadena,CA,34.1669,32.7673
Octreotide acetate,foreground,18 Old Shore Pass,Birmingham,AL,33.3538,33.3887
CICLOPIROX,Centralized,485 Oakridge Point,Waco,TX,31.5915,35.9977
Metoprolol Tartrate,De-engineered,7857 Burrows Terrace,Fort Lauderdale,FL,26.0663,38.8158
SALSOLA KALI POLLEN,human-resource,466 Warbler Place,Salt Lake City,UT,40.6681,39.9473
Always Triple BB,4th generation,5976 Welch Park,Miami,FL,25.5584,27.8918
ESIKA HYDRACOLOR 2 IN 1 HIGHLY MOISTURIZING AND COLORING SPF 25,needs-based,808 Vahlen Junction,Jackson,MS,32.3386,31.6948
Methenamine Hippurate,Graphic Interface,15369 Homewood Plaza,Memphis,TN,35.2017,39.7002
FIKES Foaming Anti-Microbial Food Service Hand Wash,frame,6744 Cody Drive,Canton,OH,40.8956,42.6395
ANTIBIOTIC PLUS PAIN RELIEF,homogeneous,128 Farragut Avenue,Manchester,NH,42.9521,47.6536
LBEL EFFET PARFAIT Polvos Compactos de Larga Duracion para rostro FPS 15 /Long Lasting Compact SPF 15,Exclusive,54743 Lakewood Alley,Columbia,SC,33.9937,39.0668
Hydroxyzine Hydrochloride,Fully-configurable,7 Atwood Court,Trenton,NJ,40.2805,30.033
Head and Shoulders,approach,7 Elgar Place,Bethesda,MD,39.0024,33.3934
Head and Shoulders,solution,6466 Elka Park,Pasadena,TX,29.6518,37.9971
Ondansetron Hydrochloride,synergy,35920 Stang Place,Dallas,TX,32.7887,42.5991
Red Eye Reducer,hub,527 Ludington Park,Fresno,CA,36.7464,33.7629
Back Labor,foreground,720 Boyd Crossing,Littleton,CO,39.592,41.6857
Otrexup,moratorium,40080 Goodland Court,Fairfax,VA,38.7351,45.2009
Ginger Lime hand sanitizer,Function-based,5078 Novick Road,El Paso,TX,31.6948,25.5584
Original Formula Motion Sickness Relief,ability,3 Oak Valley Avenue,Beaumont,TX,30.085,45.5486
Zotex-C,24 hour,72 Dexter Terrace,Orlando,FL,28.5803,39.1075
Gelato Homecare Vivid Neutral,context-sensitive,0 Jana Court,Jamaica,NY,40.6914,36.1114
DIAMITE,benchmark,90 Anderson Pass,Virginia Beach,VA,36.9216,29.0838
Divalproex Sodium,24 hour,721 Spenser Parkway,South Bend,IN,41.6255,35.1114
Divalproex Sodium,4th generation,867 Morningstar Point,Atlanta,GA,33.8444,28.0173
Edarbyclor,infrastructure,7 Red Cloud Way,Pittsburgh,PA,40.4344,38.189
CD DIORSKIN NUDE SKIN-GLOWING MAKEUP SUNSCREEN BROAD SPECTRUM SPF 15 011 Cream,internet solution,5 Village Green Parkway,Tulsa,OK,36.2383,43.0696
ARANESP,ability,74 Meadow Ridge Way,Richmond,VA,37.5313,32.7714
Anti-Bacterial Deep Cleansing Hand,Customizable,2 Gina Junction,Austin,TX,30.4501,40.4344
Amitriptyline Hydrochloride,bottom-line,26 Lillian Circle,Van Nuys,CA,34.1781,37.4009
Cloves,Automated,695 Corben Parkway,Nashville,TN,36.1866,36.0384
Sunstick Broad Spectrum SPF 30,Monitored,9375 Ryan Place,Lake Worth,FL,26.5747,30.0877
Ibuprofen and Pseudoephedrine Hydrochloride,secondary,3248 Garrison Avenue,Jacksonville,FL,30.3189,27.3822
albuterol sulfate,De-engineered,6 Lindbergh Point,Lehigh Acres,FL,26.6492,41.9229
Diclofenac Sodium,Configurable,915 Pond Place,Johnstown,PA,40.3522,36.1901
Lysol,Multi-channelled,0 Stang Alley,New York City,NY,40.7808,43.1791
Incontinence,project,43820 Coolidge Hill,Charlotte,NC,35.22,28.072
Estradiol,discrete,41451 Elka Pass,San Jose,CA,37.3894,42.4011
Amlodipine Besylate and Benazepril Hydrochloride,Monitored,33988 David Center,Lakeland,FL,27.9865,40.7808
Promethazine Hydrochloride,Cloned,5753 Linden Trail,Tulsa,OK,36.1398,36.0807
Daytime NiteTime,next generation,515 Bobwhite Center,Jacksonville,FL,30.351,43.5486
CeraVe,paradigm,7753 Riverside Court,Louisville,KY,38.189,39.7439
Borrelia Babesia Remedy,radical,86457 Ruskin Junction,Harrisburg,PA,40.303,30.352
ReCreate Foundation,solution,20 Center Park,Philadelphia,PA,40.0018,38.9033
STING RELIEF MEDICATED PAD,monitoring,2774 Duke Place,Brooklyn,NY,40.6412,43.3869
AAPE Skin Ampoule,throughput,28141 Milwaukee Parkway,Detroit,MI,42.2399,41.2335
Childrens Allergy Relief,Advanced,5 Melrose Pass,Kansas City,MO,38.8606,37.7848
Claravis,stable,33 Moose Pass,Fort Collins,CO,40.5384,40.9166
Acetaminophen,knowledge user,6245 Pine View Crossing,Palm Bay,FL,27.9694,38.8247
Hyperlyte,benchmark,24 Meadow Vale Parkway,Louisville,KY,38.189,36.1398
RUE21 Apple Spice Antibacterial Hand Sanitizer,task-force,792 Fordem Crossing,Birmingham,AL,33.5446,30.3423
Nasal Decongestant PE,Horizontal,0105 Oak Valley Circle,Silver Spring,MD,39.144,42.3253
Risperidone,Automated,06 Oriole Drive,Saint Louis,MO,38.6171,32.8479
citalopram hydrobromide,system-worthy,40430 Granby Crossing,Memphis,TN,35.1255,37.2568
Sun Defense Cream,superstructure,000 Shasta Alley,Saint Paul,MN,44.9806,47.6063
SYMPHYTUM OFFICINALE,analyzer,72 Northridge Place,Miami,FL,25.7559,42.5125
Amoxicillin,circuit,633 Troy Park,Macon,GA,32.8067,27.872
STAHIST AD,fault-tolerant,2758 Dahle Plaza,El Paso,TX,31.6948,27.9671
Voltaren,Progressive,7562 Nobel Park,Honolulu,HI,21.3278,33.5693
CLARINS BROAD SPECTRUM SPF 50 Plus - SUNSCREEN CARE MILK,customer loyalty,0 Prairieview Terrace,Chicago,IL,41.776,36.5799
Wash,Automated,44 Everett Park,Tulsa,OK,36.1539,35.3039
TOLMETIN SODIUM,Organic,5 Cottonwood Way,Miami,FL,25.6615,39.7851
Anti-Bacterial Hand,orchestration,8 Badeau Trail,Detroit,MI,42.4098,38.0702
GAMMAGARD,application,43 Elka Circle,Saint Louis,MO,38.6185,40.5384
REGLAN,bi-directional,26042 Prairie Rose Lane,Philadelphia,PA,39.9496,26.045
Miconazole 3 Combination Pack,tangible,04939 Mockingbird Drive,Tulsa,OK,36.1499,33.8356
good sense antacid,policy,9986 Fuller Park,San Jose,CA,37.3894,38.5816
FlexGen,Proactive,9175 Kings Drive,Apache Junction,AZ,33.3616,41.6727
PLANTAGO LANCEOLATA POLLEN,well-modulated,4 Ramsey Road,Washington,DC,38.8933,40.5927
GRAPEFRUIT,value-added,2491 Graceland Crossing,Albuquerque,NM,35.0443,42.7371
Ropivacaine Hydrochloride,model,9773 Weeping Birch Road,Hartford,CT,41.7918,32.7942
Paroxetine,Programmable,18701 Corben Way,Austin,TX,30.3264,40.43
Losartan Potassium and Hydrochlorothiazide,Triple-buffered,53512 Glacier Hill Crossing,Aurora,IL,41.7582,29.834
Hydrochlorothiazide,internet solution,3612 Vahlen Avenue,El Paso,TX,31.7705,33.7867
Clindamycin Palmitate Hydrochloride,strategy,49 Homewood Drive,Austin,TX,30.3264,41.8119
Lisinopril,firmware,34985 Browning Pass,Los Angeles,CA,33.7866,40.4598
Pioglitazone,architecture,2 Mariners Cove Way,Topeka,KS,39.0429,40.6278
FLUOXETINE,Business-focused,125 Scott Hill,Phoenix,AZ,33.2765,33.8444
Umcka ColdCare FastActives Mint-Menthol,firmware,6646 Almo Circle,Cincinnati,OH,39.0706,30.033
DiorSkin Nude 020 Light Beige,Team-oriented,176 Atwood Plaza,New York City,NY,40.7611,40.7664
Captopril,context-sensitive,4 Bashford Pass,Houston,TX,29.6218,29.6518
Torsemide,neutral,64946 Lawn Pass,Petaluma,CA,38.4631,32.7699
Silver Sulfadiazine,capacity,8 Kropf Alley,Tuscaloosa,AL,33.3072,40.8662
Bupropion Hydrochloride,analyzer,37 Beilfuss Center,Kansas City,MO,39.0351,27.3822
Dignity Health Hand Sanitizer Alcare Plus,Visionary,4 Briar Crest Lane,Columbus,OH,40.081,30.2023
Tussin DM,Digitized,2 Carey Place,Columbus,OH,40.0028,40.7808
IBU,stable,12066 Armistice Drive,Houston,TX,29.834,38.8933
Alprazolam,capability,667 Coolidge Junction,Chicago,IL,41.8804,29.2243
Coppertone Tattoo Guard,intranet,31 Melby Parkway,Indianapolis,IN,39.7795,47.0662
Toposar,web-enabled,9 Charing Cross Way,Madison,WI,43.073,33.7866
ELF Tinted Moisturizer SPF 20,Optimized,45240 Grasskamp Crossing,Knoxville,TN,35.9901,38.0283
BOBBI BROWN PROTECTIVE FACE,secured line,9702 Golf Avenue,Oklahoma City,OK,35.411,38.9033
Ibuprofen,Programmable,9 Stephen Crossing,Lubbock,TX,33.61,33.7866
BANANA,maximized,95 Golden Leaf Circle,Phoenix,AZ,33.2765,32.4908
dg health tussin dm,foreground,07517 Vermont Road,Newport Beach,CA,33.6062,47.2325
Ifosfamide,Object-based,605 Algoma Lane,Birmingham,AL,33.5446,47.2061
TOLMETIN SODIUM,frame,956 Saint Paul Junction,San Jose,CA,37.3352,35.0768
TUMS,4th generation,712 Independence Plaza,Manchester,NH,42.9521,35.4794
Sage,portal,6102 Arrowood Place,Hamilton,OH,39.441,45.0059
Acetazolamide,concept,97 John Wall Pass,Bowie,MD,38.8336,35.5514
AMOREPACIFIC,strategy,5 Vernon Lane,Milwaukee,WI,43.1154,43.0746
Fluphenazine Hydrochloride,exuding,5756 Banding Place,Houston,TX,29.834,38.8999
Rizatriptan Benzoate,time-frame,1014 Lawn Pass,Brooklyn,NY,40.6407,27.872
Tretin-X,Multi-layered,4 Maple Street,Springfield,MO,37.1136,32.7699
"Molds, Rusts and Smuts, Helminthosporium interseminatum",knowledge user,98 3rd Terrace,Houston,TX,29.9319,35.0763
INSTANT HAND SANITIZER,Graphical User Interface,882 Steensland Point,Jamaica,NY,40.6914,37.2742
Quetiapine fumarate,concept,624 Crest Line Center,Honolulu,HI,21.2987,29.834
Diabetigen,optimal,28 Swallow Point,Kansas City,MO,39.035,26.0143
Foaming Hand Sanitizer,paradigm,887 Gale Court,Albuquerque,NM,35.0443,32.7948
Vivacaine,algorithm,271 Glacier Hill Street,Charleston,WV,38.2968,26.1457
Quazepam,Cloned,6 Haas Plaza,Columbia,MO,38.9033,32.6469
Aspirin,multi-state,76 Burrows Parkway,Corpus Christi,TX,27.777,38.2352
Valsartan and hydrochlorothiazide,encoding,6 Glacier Hill Terrace,Toledo,OH,41.6767,43.1367
sinus and allergy pe,foreground,6047 Bartillon Point,Valdosta,GA,30.946,42.6149
TOPIRAMATE,challenge,35 Northland Center,Wilkes Barre,PA,41.2722,42.4156
Clonidine Hydrochloride,definition,1 Spaight Hill,Carlsbad,CA,33.0169,40.4322
Betadine,Devolved,5 Valley Edge Place,Chicago,IL,41.8119,39.7076
infants pain and fever,structure,1307 Doe Crossing Crossing,El Paso,TX,31.6948,35.9977
AVERTEAX,Managed,3653 Express Hill,Honolulu,HI,21.3278,39.9379
Berri-Freez,internet solution,77 Autumn Leaf Way,Buffalo,NY,42.7684,38.8933
Pain Relief PM Nightime Sleep Aid,protocol,05 Carey Junction,Riverside,CA,33.7529,39.9671
ETHYL ALCOHOL,bifurcated,6728 Moose Park,Grand Rapids,MI,43.012,43.6746
Gonal-f,Re-contextualized,0886 Reinke Junction,Olympia,WA,47.1126,38.8933
ELIPHOS,challenge,802 Onsgard Parkway,Minneapolis,MN,45.0159,47.4511
Minitran,Reverse-engineered,489 Northland Crossing,Tucson,AZ,32.2691,39.6255
VITALUMIERE AQUA,impactful,40 Bellgrove Way,Orlando,FL,28.5289,42.2894
Detrol LA,bandwidth-monitored,0 Golf Course Lane,New Orleans,LA,29.6779,32.5547
ESIKA,contingency,2810 Carberry Street,Jacksonville,FL,30.3449,36.3024
Phentermine Resin,customer loyalty,0502 Bluestem Circle,Boston,MA,42.3611,39.009
Valacyclovir Hydrochloride,policy,5 Cambridge Center,Pensacola,FL,30.4061,43.286
"Standardized Grass Pollen, Sweet Vernal Grass",policy,58 Meadow Vale Alley,Valdosta,GA,30.946,38.9982
Penicillin V Potassium,analyzer,1026 Tony Circle,Washington,DC,38.8933,40.2785
Claree,tertiary,78637 Schlimgen Park,Erie,PA,42.1827,33.0005
Zolpidem Tartrate,holistic,09 Kenwood Lane,Newport News,VA,37.1959,39.009
Tobacco Withdrawal,zero tolerance,21 Myrtle Avenue,Charlotte,NC,35.0656,32.9189
Trifluoperazine Hydrochloride,encoding,700 Merry Center,Simi Valley,CA,34.0324,40.7548
Ibuprofen,Operative,658 Lunder Avenue,San Luis Obispo,CA,35.3471,36.9216
cold and allergy relief,task-force,41585 Kim Trail,El Paso,TX,31.6948,30.6521
Ropinirole Hydrochloride,infrastructure,35856 Crest Line Junction,Phoenix,AZ,33.2765,47.8599
Crab,homogeneous,1 Roxbury Street,San Jose,CA,37.2602,41.6727
Lithium Carbonate,Programmable,65 Forest Park,Detroit,MI,42.2399,30.671
OXYGEN,collaboration,729 Continental Place,Tuscaloosa,AL,33.3072,31.3902
Protamine Sulfate,Up-sized,91041 Namekagon Place,San Bernardino,CA,34.1446,35.0942
urocit-k,migration,053 Donald Pass,Colorado Springs,CO,38.9497,37.6802
AcipHex,Face to face,686 Sunbrook Circle,El Paso,TX,31.6948,37.9577
AZACTAM,architecture,974 Lake View Hill,Fargo,ND,46.9346,42.7684
Fenofibrate,well-modulated,8 Killdeer Way,Pittsburgh,PA,40.4344,42.1109
Pindolol,Streamlined,5 Warrior Plaza,Austin,TX,30.43,38.8247
Sulindac,secured line,5 Northview Lane,Denver,CO,39.734,37.6374
CENTER-AL - LOLIUM PERENNE POLLEN,User-centric,60825 Pearson Crossing,Buffalo,NY,42.9255,27.8546
health mart nasal decongestant,Switchable,42367 Darwin Way,Pasadena,CA,34.1669,42.6149
Coralite Pain Relief,object-oriented,335 Pankratz Point,Orlando,FL,28.5803,39.9671
Furosemide,Ergonomic,84077 Sommers Court,Vancouver,WA,45.8016,46.9346
STAVZOR,motivating,0 Sunnyside Point,Evansville,IN,37.9971,26.1457
Canary Grass,coherent,8014 New Castle Terrace,Washington,DC,38.897,41.3657
Dopamine Hydrochloride and Dextrose,bi-directional,99289 Starling Way,El Paso,TX,31.6948,45.0159
Oxycodone and Acetaminophen,upward-trending,7616 Blue Bill Park Alley,Austin,TX,30.352,43.0685
PAROXETINE,local,9579 Hallows Park,Sacramento,CA,38.3774,41.0704
Givenchy Photo Perfexion Fluid Foundation SPF 20 Perfect Gold Tint 7,interactive,441 Fair Oaks Parkway,Alhambra,CA,33.7866,34.6019
Ampicillin,hardware,01855 Sutherland Crossing,Fort Worth,TX,32.6796,35.26
Nexavar,Managed,544 Sunbrook Street,Columbus,OH,39.9671,38.0638
Eye Drops SY,Focused,28 Hagan Park,Philadelphia,PA,39.9473,33.571
ULMUS AMERICANA POLLEN,Virtual,6 Muir Hill,Anderson,IN,40.0938,29.4189
Sports Injury,frame,39475 Summit Center,Wilmington,NC,34.2651,42.7325
FENOFIBRATE,multi-tasking,1335 Forest Point,Houston,TX,29.7041,34.006
Neo,support,6084 Myrtle Junction,Dallas,TX,32.7673,38.9982
Fosinopril Sodium and Hydrochlorothiazide,Cross-group,46 Glacier Hill Road,Elizabeth,NJ,40.6747,35.1316
Diazepam,product,5 Schlimgen Junction,Kansas City,MO,38.9621,39.5207
Suboxone,circuit,10 Novick Plaza,Saint Augustine,FL,29.9475,32.6889
Lymph-Tone III,Advanced,05315 Buhler Circle,Apache Junction,AZ,33.3616,38.1071
AMILORIDE HYDROCHLORIDE,secured line,271 Golf Court,Springfield,MO,37.1803,33.8913
Heparin Sodium,Secured,5538 Stone Corner Way,Boston,MA,42.3611,39.7388
Oxygen,Self-enabling,30 Kenwood Trail,Portland,ME,43.6783,39.9671
Gelato Topical Anesthetic,functionalities,09 Fair Oaks Circle,Long Beach,CA,33.7678,40.7526
enema,Diverse,47 Hintze Road,Houston,TX,29.834,28.5289
risperidone,global,66 Kipling Lane,Pompano Beach,FL,26.1457,34.5137
Leader,time-frame,80644 Moulton Way,Tulsa,OK,36.1539,39.7076
Afeditab,Horizontal,1 Carberry Junction,El Paso,TX,31.6948,33.7465
Canadian Blue Grass,global,0431 Parkside Way,Newton,MA,42.3528,39.7434
Equetro,groupware,630 Moland Road,Indianapolis,IN,39.7795,41.1039
Cefuroxime Axetil,Polarised,98 Surrey Hill,Charleston,SC,32.7976,42.2894
topcare sleep aid,framework,6 Burning Wood Trail,Portland,OR,45.5287,40.8956
Topiramate,paradigm,75970 Cordelia Court,Denver,CO,39.6472,38.4631
Ibuprofen,reciprocal,516 Schiller Way,Chicago,IL,41.8119,38.0283
Methamphetamine Hydrochloride,encryption,61 Kim Point,Houston,TX,29.7575,38.0612
Germasidol,dynamic,10408 Tennessee Junction,Charleston,WV,38.2968,40.7105
equate hydrocortisone,directional,82853 Ridgeview Hill,San Jose,CA,37.3352,40.8063
Dry Scalp Care,orchestration,36 Barnett Alley,Atlanta,GA,33.7629,30.4061
Peptic Relief,Advanced,26 Arapahoe Junction,West Palm Beach,FL,26.6459,43.1367
Potassium Chloride,asynchronous,31065 Dawn Lane,Albany,NY,42.6149,38.0283
Vertiforce,4th generation,8283 Kensington Point,Seminole,FL,27.8444,25.5593
Constulose,De-engineered,72 Lindbergh Way,San Francisco,CA,37.7848,37.5593
Xylocaine,superstructure,6821 Sauthoff Terrace,El Paso,TX,31.6948,43.0696
DIPHTHERIA AND TETANUS TOXOIDS ADSORBED,coherent,3 Eggendart Crossing,Spartanburg,SC,35.1114,38.8976
Mucinex Sinus-Max,interactive,93 Main Point,Staten Island,NY,40.5973,29.834
TAZTIA,uniform,79274 Dovetail Way,Denton,TX,33.1428,32.8538
Gabapentin,asymmetric,17589 Delaware Junction,Houston,TX,29.6297,38.3774
Oxygen,focus group,01 Waubesa Court,Orlando,FL,28.5803,29.834
good sense complete lice treatment,superstructure,900 Clyde Gallagher Street,Washington,DC,38.884,38.8932
antacid,analyzer,26479 Dexter Drive,Pinellas Park,FL,27.8402,43.0982
Best Health Sore Throat Relief Cherry Flavor,Function-based,53 Reinke Crossing,Monroe,LA,32.4908,41.1465
Effer-K,Intuitive,7 Pierstorff Avenue,Fairfield,CT,41.1928,32.0053
ANTIBACTERIAL AMBER FLORAL,content-based,5019 4th Street,Boston,MA,42.3615,33.7541
OLUX-E,Mandatory,223 Dawn Alley,Charlotte,NC,35.0656,35.22
Gabapentin,toolset,9 Toban Point,Raleigh,NC,35.7977,45.5078
Carvedilol,Optimized,584 Orin Point,Kansas City,KS,39.085,47.2325
Flurbiprofen Sodium,framework,6551 Pleasure Way,Huntington,WV,38.4096,40.4614
Sheer Defense Tinted Moisturizer SPF 15 ML 30,dedicated,0 Summit Drive,Salem,OR,44.9364,42.37
Aruba Aloe Very Water Resistant Sunscreen - For Faces,Implemented,387 Schlimgen Plaza,Tacoma,WA,47.3081,39.0853
Oxacillin,contingency,18001 Sheridan Court,Delray Beach,FL,26.6459,33.7866
Motion Sickness II,grid-enabled,0 Vernon Hill,Tulsa,OK,36.3024,47.6849
Vitamin A D,grid-enabled,43053 Reindahl Terrace,San Bernardino,CA,34.1069,42.4156
HYDROCODONE BITARTRATE AND ACETAMINOPHEN,firmware,7 Dahle Terrace,Reno,NV,39.7699,32.8488
Vaporizing Chest Rub,Cross-platform,653 Lindbergh Parkway,Baltimore,MD,39.439,29.6518
Xylocaine,emulation,6296 Golf View Avenue,Tampa,FL,28.0726,42.3823
Plum Smooth Plumb Numb Gelee,process improvement,8 Clarendon Junction,Waterloo,IA,42.4156,39.2847
Pramipexole Dihydrochloride,Proactive,51435 Fieldstone Pass,Flint,MI,43.0113,40.7808
MEPIVACAINE HYDROCHLORIDE,Visionary,86980 Amoth Parkway,Toledo,OH,41.6782,43.5486
Enalapril Maleate and Hydrochlorothiazide,support,562 Westerfield Hill,Charlottesville,VA,38.0401,37.7772
Erythromycin,Centralized,0 Hermina Pass,Chico,CA,39.8032,47.3081
Oxygen,info-mediaries,83667 Banding Trail,Fresno,CA,36.7464,35.0512
MUM CHAMOMILE,Multi-layered,0 Lien Crossing,Canton,OH,40.8956,32.8756
Amiloride Hydrochloride,Sharable,9761 Independence Terrace,Lehigh Acres,FL,26.6492,42.6149
Ifosfamide,Devolved,1101 Morrow Avenue,Atlanta,GA,33.8444,38.354
TAZORAC,functionalities,51090 Nelson Park,Chicago,IL,41.8119,47.1126
E-Z-Cat Dry,product,836 John Wall Road,Colorado Springs,CO,38.9497,33.817
Cantharis Kit Refill,24/7,71233 Clove Hill,Charleston,WV,38.2968,31.5915
Softlips,Switchable,2081 Clove Lane,Lawrenceville,GA,33.9464,44.8055
Metronidazole,Future-proofed,63 Waywood Crossing,Charlotte,NC,35.26,37.3924
Paprika,Optimized,23 Buena Vista Avenue,Washington,DC,38.8992,40.2204
Lisinopril,flexibility,0107 Lien Terrace,Reading,PA,40.3886,39.0429
HELLO FLAWLESS OXYGEN WOW Broad Spectrum SPF 25 BRIGHTENING MAKEUP - IM SO MONEY,Virtual,4 Moose Center,Cincinnati,OH,39.111,35.5514
Zidovudine,systematic,8929 Gateway Place,Albany,NY,42.6568,38.0283
fad first aid direct Eyewash,bifurcated,3791 Alpine Place,Cambridge,MA,42.362,33.7529
Softsoap Instant Hand Sanitizer with moisturizers,Multi-lateral,870 Dryden Way,Naples,FL,26.2416,30.2166
Proactiv Solution Renewing Cleanser,Object-based,4125 Dexter Center,San Antonio,TX,29.3875,32.2334
Cornex,bottom-line,779 Corscot Parkway,New York City,NY,40.7864,33.7866
Evtox,service-desk,8 Talisman Hill,Mobile,AL,30.6589,43.0354
Winning Hands Alcohol Foaming,Self-enabling,99 Union Trail,Nashville,TN,36.1866,41.6492
Tylenol PM,client-driven,6 Stuart Circle,Silver Spring,MD,38.9982,44.9762
Cafe Au Lait,bifurcated,14090 Eagan Way,Milwaukee,WI,43.0174,39.8647
Geotrichum candidum,protocol,90049 Sullivan Lane,Baltimore,MD,39.2847,31.6948
CACTUS FLOWER AND MANGO ANTIBACTERIAL GENTLE FOAMING HAND SP,Horizontal,5809 Buhler Place,Spartanburg,SC,35.1114,33.8193
Delsym,Fundamental,82 Scoville Trail,San Diego,CA,33.0169,42.0869
OP Dark Tanning Gel 4,interactive,8562 Mitchell Lane,Sioux Falls,SD,43.6746,37.5242
Simvastatin,extranet,576 Graceland Parkway,Stamford,CT,41.3089,43.0174
Torsemide,bifurcated,9 Esch Circle,Fredericksburg,VA,38.3365,42.8441
Cefotetan,executive,802 Pine View Lane,Dallas,TX,32.8756,32.7673
Nu Skin Nu Colour,clear-thinking,46777 Becker Alley,Las Vegas,NV,36.2235,45.9783
Alka-Seltzer Plus,intranet,4 Carey Road,Baltimore,MD,39.2856,31.6948
Pantoprazole Sodium,intermediate,91650 Warbler Point,Youngstown,OH,41.1039,30.6341
Nevirapine,Profit-focused,7 Walton Drive,Washington,DC,38.892,39.1802
Fexofenadine Hydrochloride,Ameliorated,306 Lyons Lane,Oakland,CA,37.8471,43.6746
Alfalco,actuating,20 Longview Court,Boston,MA,42.3389,26.5747
Rite Aid Soothing Medicated Anit-Itch,extranet,80013 Service Lane,New Orleans,LA,30.033,39.778
Nortriptyline Hydrochloride,extranet,6123 Ludington Crossing,Cincinnati,OH,39.2663,35.0448
Chaetomium globosum,software,0201 Esch Circle,Glendale,CA,34.1378,27.9246
Standardized Orchard Grass Pollen,Multi-tiered,48509 Mccormick Road,Tampa,FL,28.0726,39.7495
Thuja,focus group,246 Hovde Way,Stamford,CT,41.0516,43.0123
Cepacol,Total,9 Gulseth Lane,Albany,NY,42.6853,40.4344
Vite20,Advanced,66 Shopko Trail,Littleton,CO,39.5437,31.9386
All Day Pain Relief,ability,869 Hudson Pass,Pueblo,CO,38.2352,34.1781
Citalopram Hydrobromide,internet solution,498 Sage Road,Conroe,TX,30.2906,37.6802
LEVAQUIN,value-added,92580 Sheridan Plaza,Lincoln,NE,40.8529,32.4142
DAYWEAR,full-range,9865 Lukken Hill,Flint,MI,43.0113,41.4571
Shopko Hemorrhoidal,productivity,886 Cherokee Road,Louisville,KY,38.189,42.1707
SYNTHROID,5th generation,32 Miller Crossing,Roanoke,VA,37.2742,41.2949
Propoxyphene and Acetaminophen,orchestration,848 Parkside Alley,Saint Louis,MO,38.6185,40.303
Up and Up childrens acetaminophen,Programmable,92 Johnson Place,Cincinnati,OH,39.2692,43.0982
TURKEY,Horizontal,00 Mariners Cove Plaza,Missoula,MT,47.116,28.5456
PIRMELLA 7/7/7,orchestration,438 Magdeline Drive,Charlotte,NC,35.26,39.7388
Methyldopa,mission-critical,5 Evergreen Hill,Honolulu,HI,21.3095,42.8161
Heparin Sodium,internet solution,77 Tennyson Alley,Washington,DC,38.8933,37.7848
Duloxetine,installation,449 Onsgard Terrace,Fort Myers,FL,26.5529,32.7673
All Day Pain Relief,Graphical User Interface,2878 Independence Center,Norfolk,VA,36.9312,25.2846
ENGERIX-B,actuating,50761 Toban Road,Oakland,CA,37.8044,30.4455
LBEL MAXIMUM COMFORT AND LONG-LASTING FOUNDATION SPF 10,next generation,036 Columbus Point,Dallas,TX,32.7673,40.9897
Family Dollar Complete Protection Anticavity Mouthwash,emulation,17 Declaration Street,Jersey City,NJ,40.7324,42.3389
"Redtop Grass, Standardized",methodology,01323 Talisman Street,Dallas,TX,33.0005,32.0175
Laura Mercier Tinted Moisturizer SPF 20 SAND,functionalities,41 Oxford Crossing,Detroit,MI,42.2719,35.9901
SPORANOX,zero administration,99 Paget Place,Sacramento,CA,38.3774,36.0807
EltaMD UV Sport,Programmable,94 Sage Parkway,Morgantown,WV,39.6505,33.7866
Irbesartan and Hydrochlorothiazide,open system,1331 Blue Bill Park Crossing,Memphis,TN,35.1334,41.7665
Budpak Triple Antibiotic Maximum Strength,mission-critical,641 Mifflin Place,Indianapolis,IN,39.7795,26.5529
up and up aspirin,analyzer,17820 Emmet Plaza,Cleveland,OH,41.6857,41.0655
Coppertone Sport AccuSpray,tertiary,317 Sunfield Lane,Philadelphia,PA,40.0018,39.2856
Skopko Urinary Pain Relief,zero administration,48301 Mosinee Plaza,Norfolk,VA,36.9312,40.8259
Potassium Chloride,paradigm,3589 Cardinal Hill,Newark,NJ,40.7664,39.7395
Valacyclovir hydrochloride,24/7,47563 Barby Plaza,Oklahoma City,OK,35.599,41.5487
Pravastatin Sodium,projection,0821 Lawn Parkway,Arlington,VA,38.8808,29.834
Talwin,mobile,36 Sage Parkway,Lakeland,FL,27.9865,42.1707
temazepam,internet solution,9614 Pine View Alley,Orlando,FL,28.5469,35.2017
Tetracycline Hydrochloride,incremental,756 Nevada Center,Conroe,TX,30.2906,32.3544
Torsemide,system engine,52556 Pawling Terrace,Valley Forge,PA,39.9832,41.8119
Mucinex,encoding,36150 Talmadge Court,Alexandria,LA,31.2034,33.5693
Lamotrigine,Business-focused,551 Charing Cross Court,Monroe,LA,32.4908,36.7464
ZHENG GU SHUI,software,94709 Rieder Center,Anderson,IN,40.0938,25.5584
Hydralazine Hydrochloride,Sharable,5191 Park Meadow Court,Shreveport,LA,32.6076,31.5175
Maximum Strength Original Diaper Rash,workforce,3819 Corscot Hill,Mobile,AL,30.671,39.0883
PROSOPIS JULIFLORA POLLEN,artificial intelligence,56799 Beilfuss Circle,Sacramento,CA,38.3774,40.8469
Antibacterial Hand Sanitizer,Ameliorated,4731 Little Fleur Point,Charlotte,NC,35.26,38.3774
valacyclovir hydrochloride,executive,2 Continental Avenue,Saint Paul,MN,45.0803,36.0807
Lamotrigine,tertiary,9 Miller Place,Lansing,MI,42.5992,38.4797
GRANISETRON HYDROCHLORIDE,methodology,51779 Petterle Way,Dallas,TX,32.8756,41.8119
NATRUM SULPHURICUM,foreground,4 Glendale Lane,Memphis,TN,35.0981,40.0018
ESSENTIAL SOLUTION RED GINSENG MASK SHEET,hub,42 Northfield Place,Dallas,TX,32.7673,35.9977
Tolnaftate,Optimized,9756 Bunting Street,New York City,NY,40.7918,27.7391
Rose Sap Patch,multimedia,72967 Grover Avenue,Irvine,CA,33.7074,41.7845
HYDROCODONE BITARTRATE AND ACETAMINOPHEN,zero tolerance,96857 Sullivan Lane,Washington,DC,38.8933,30.43
Levocarnitine,contextually-based,134 Fair Oaks Trail,Huntington,WV,38.4134,33.8106
Ultra-TechneKow,superstructure,859 Farmco Circle,Washington,DC,38.9007,40.8469
GNP Hygienic Cleansing Pads,local area network,2050 Buena Vista Trail,Evansville,IN,37.9971,33.8444
DayTime Nitetime cold and flu relief,framework,968 Novick Road,Dallas,TX,32.7673,46.9346
Verapamil Hydrochloride,bandwidth-monitored,2 Melody Lane,Oklahoma City,OK,35.599,30.2345
